address1,address2,city,country,email,id,latitude,longitude,name,phone,state,zip
PO Box 7121,,Abilene,US,adopt@pawedsquad.com,TX1193,32.3949,-99.7702,Pawed Squad,,TX,79606
,,Addison,US,addisonanimalcontrol@addisontx.gov,TX2237,32.96,-96.8295,Town of Addison,(972) 450-2845,TX,75001
,,Adkins,US,Cherry2790@hotmail.com,TX1986,29.3737,-98.2719,In Dog We Trust,,TX,78101
,,Aledo,US,coolmeadowirish@charter.net,TX1072,32.7092,-97.6136,Irish Setter Rescue of North Texas,817-244-3117,TX,76008
,,Allen,US,adopt@dallasdogrrr.org,TX2115,33.1034,-96.671,Dallas DogRRR,4697672355,TX,75013
770 S. Allen Heights Drive,Northwest Corner of Allen Heights & Bethany,Allen,US,animalshelter@cityofallen.org,TX276,33.0962,-96.6425,City of Allen Animal Shelter,214-509-4378,TX,75002
,,Allen,US,bc.rescue.rehab@gmail.com,TX1980,33.0962,-96.6425,Border Collie Rescue & Rehab of Texas,972-533-9172,TX,75002
2900 East Old Marathon Highway,,Alpine,US,admin@alpinehumanesociety.org,TX1202,30.3586,-103.6622,Alpine Humane Society,,TX,79830
Box 6013,,Alpine,US,mmwesttx@yahoo.com,TX1635,30.3583,-103.6606,Jethro Homeward Bound Pets,432-294-1257,TX,79832
550 W. HWY 6,,Alvin,US,amiller@cityofalvin.com,TX402,29.4127,-95.2461,City of Alvin Animal Adoption Center c/o Alvin Police Department,281-388-4331,TX,77511
PO Box 5053,,Alvin,US,info@pughearts.com,TX1084,29.4236,-95.2439,PugHearts the Houston Pug Rescue,,TX,77512
,,Alvin,US,jlawsondfluff@gmail.com,TX2169,29.4127,-95.2461,Diamond in the Fluff,832687304,TX,77511
,,Alvin,US,k9kareadoptme@gmail.com,TX2091,29.4127,-95.2461,K9Kare,,TX,77511
,,Alvin,US,paws@oplink.net,TX243,29.4236,-95.2439,Paws Animal Rescue,(281) 241-7015,TX,77512
11901 S. Coulter,,Amarillo,US,amarillospca@amaonline.com,TX307,35.2047,-101.8408,Amarillo SPCA,(806)622-0555,TX,79101
,,Amarillo,US,information@topoftexascorgirescue.com,TX1812,35.1841,-101.8034,Top of Texas Corgi Rescue,806-382-8310,TX,79103
3501 S Osage St.,,Amarillo,US,mypet@amarillo.gov,TX2087,35.0733,-101.8603,Amarillo Animal Management and Welfare,806-378-9032,TX,79118
3602 CR 45,,Angleton,US,bcsoaco@gmail.com,TX830,29.1685,-95.432,Brazoria County Sheriffs Office Livestock /Animal Control,979-388-2365,TX,77515
,,Angleton,US,info@gulfcoaststars.org,TX1709,29.1685,-95.432,Gulf Coast STARS,,TX,77515
,,Anton,US,jstapws@yahoo.com,TX1324,33.8114,-102.1642,Waggin Tails Animal Sanctuary,806 997-2169,TX,79313
4630 FM 1069,,Aransas Pass,US,bbblue617@gmail.com,TX1078,27.9088,-97.1509,Sandra Sue Benson Animal Adoption Center (SPCA San Pat County),(361) 332-1445,TX,78336
529 Country Club Road,,Argyle,US,ashlynallen_bnoblefarms@aol.com,TX2198,33.1053,-97.1471,BNoble Farms and Rescue,(972)567-2224,TX,76226
,,Argyle,US,igrescuetexas@gmail.com,TX1229,33.1053,-97.1471,IGCA Rescue of Texas,,TX,76226
,,Arlington,US,adopt@homerescuedfw.org,TX2036,32.7552,-97.1342,House of Meows - HOME Rescue,,TX,76012
,,Arlington,US,adoptions@braveheartanimalrescue.org,TX2127,32.735,-97.107,Braveheart Animal Rescue,(817) 721-3651,TX,76001
,,Arlington,US,adoptions@shelter2rescue.org,TX1223,32.7186,-97.1477,Shelter2Rescue Coalition,(682) 305-2100,TX,76013
,,Arlington,US,Adoptions@southernstatesrescuedrottweilers.org,TX1102,32.6548,-97.1583,Southern States Rescued Rottweilers,,TX,76017
,,Arlington,US,applications@purrfectcats.org,TX1581,32.7356,-97.1078,Purrfect Cats,(817) 561-6160,TX,76094
,,Arlington,US,mastiffsandmore@gmail.com,TX1703,32.757,-97.0939,Mastiffs and More Rescue Tx,,TX,76011
,,Arlington,US,rescuewithoutboundaries@gmail.com,TX2144,32.6548,-97.1583,Rescue Without Boundaries,,TX,76017
,,Athens,US,hcanimalshelter@henderson-county.com,TX2283,32.1991,-95.8661,Henderson County Animal Shelter Texas,(903) 676-4029,TX,75751
P.O Box1678,,Athens,US,info@k9millrescue.org,TX1957,32.1991,-95.8661,K9 Mill Rescue,682-214-6320,TX,75751
,,Aubrey,US,ruffnreadyrescue@yahoo.com,TX1043,33.2938,-96.9889,Ruff n Ready Adopt-a-Bulls,,TX,76227
,,Aubrey,US,teresam.doh@gmail.com,TX2140,33.2938,-96.9889,Dogs of Hilltown,,TX,76227
1156 West Cesar Chavez,,Austin,US,adopt@austinpetsalive.org,TX1218,30.2458,-97.766,Austin Pets Alive!,,TX,78704
"FM 1960 Rd. East #71 Humble, Texas 77346",,Austin,US,adopt@ctdr.org,TX562,30.2669,-97.7428,Central Texas Dachshund Rescue,,TX,73301
,,Austin,US,adopt@love-a-bull.org,TX1402,30.2669,-97.7428,Love-A-Bull,(512) 867-5309,TX,78760
7201 Levander Loop,,Austin,US,animal.customerservice@austintexas.gov,TX514,30.2654,-97.7164,Austin Animal Center,(512)-978-0500,TX,78702
,,Austin,US,austinlostandfoundpets@gmail.com,TX2258,30.2669,-97.7428,Austin Lost and Found Pets,(512) 965-6744,TX,78715
,,Austin,US,cats_angels@sbcglobal.net,TX400,30.4042,-97.7571,"Cats' Angels, Inc. (Cats Angels)",(512) 459-6417,TX,78759
,,Austin,US,doggirl1@earthlink.net,TX1053,30.3783,-97.9456,Animals First Rescue,,TX,78734
,,Austin,US,doggirl1@earthlink.net,TX1054,30.3783,-97.9456,Reunion Rescue,,TX,78734
5508 HWY 290 West,www.Facebook.com/RelocationRescue,Austin,US,help@relocationrescue.com,TX1825,30.2553,-97.8519,Relocation Rescue,(512) 247-8969,TX,78735
PO Box 14421,,Austin,US,info@austinboxerrescue.com,TX898,30.3309,-97.7027,Austin Boxer Rescue,(512) 968-1343,TX,78752
PO BOX 171175,,Austin,US,info@aychihuahuarescue.org,TX1364,30.4959,-97.7422,AY CHIHUAHUA RESCUE,512-763-0244,TX,78717
P.O. BOX 10069,,Austin,US,info@gpa-centex.org,TX192,30.2669,-97.7428,Greyhound Pets of America/Central Texas,(855) 446-3278,TX,78766
Austin  TX,,Austin,US,info@houndrescue.com,TX500,30.2315,-97.7187,Hound Rescue,,TX,78741
P.O. Box 170428,,Austin,US,info@pugrescueaustin.com,TX1331,30.4959,-97.7422,Pug Rescue of Austin,,TX,78717
PO Box 202402,,Austin,US,info@purrfectpalsrescue.com,TX1357,30.4042,-97.7571,Purrfect Pals Rescue,,TX,78759
,,Austin,US,info@safehavenanimalrescue.com,TX621,30.5154,-97.669,Safe Haven Animal Rescue,(512) 576-7769,TX,78664
P.O. Box 10033,,Austin,US,info@smallchancerescue.com,TX1148,30.2669,-97.7428,Small Chance Rescue,512-699-7244,TX,78766
P.O. Box 66872,,Austin,US,info@weerescue.org,TX241,30.2669,-97.7428,Wee Rescue,512-533-9360,TX,78766
PO Box 201192,,Austin,US,lilpaws_malteserescue@yahoo.com,TX891,30.2078,-97.7979,Lil Paws Maltese Rescue and other Petite Paws,,TX,78745
P.O. Box 13474,,Austin,US,loveasiamese2@yahoo.com,TX1334,30.2669,-97.7428,Austin Siamese Rescue,512-354-7875,TX,78711
,,Austin,US,pawsofaustin@yahoo.com,TX555,30.2491,-97.9323,PAWS of Austin,,TX,78736
,,Austin,US,penny@catnipcasa.org,TX2015,30.2669,-97.7428,Catnip Casa Cat Refuge,(512) 387-8029,TX,78708
,,Austin,US,petfinder_inquiry@texasgsp.org,TX176,30.1901,-97.7424,Texas GSP Rescue,,TX,78744
,,Austin,US,sagdinfo@aol.com,TX1069,30.2914,-97.7631,Homeward Bound Dog Rescue,,TX,78703
,,Austin,US,swig@sbcglobal.net,TX1196,30.3463,-97.7674,Austin Sheltie Rescue Inc,(512) 453-8094,TX,78731
,,Austin,US,wagshopeandhealing@gmail.com,TX1668,30.3783,-97.9456,"Wags, Hope and Healing",(512) 777-9936,TX,78734
PO Box 27453,,Austin,US,woof@austincockerrescue.org,TX365,30.2669,-97.7428,Cocker Spaniel Rescue of Austin/San Antonio,512-527-9923,TX,78755
724 Park St,613 S.E. Parkway,Azle,US,JFlores@ci.azle.tx.us,TX09,32.9117,-97.5442,Azle Animal Shelter,(817)444-8215,TX,76020
P. O. Box 800503,,Balch Springs,US,milliesa@swbell.net,TX673,32.7197,-96.619,Texas Ferret Lovers Rescue,972 286 5778,TX,75180
,,Ballinger,US,animalcontrol@ballingerpd.org,TX2285,31.744,-99.9529,Ballinger Animal Control,(325) 365-3591,TX,76821
PO Box 611,,Bandera,US,adopt@missionmiracle.org,TX2135,29.7623,-99.0483,Mission Miracle K9 Rescue,,TX,78003
PO Box 656,,Bandera,US,animalcontrol@banderacounty.org,TX1273,29.7623,-99.0483,Bandera County Animal Control,858-361-4686,TX,78003
P.O. Box 2200,,Bandera,US,maudreyh@aol.com,TX364,29.7623,-99.0483,Cowboy Capital Pet Assistance League Inc.,(210) 867-1769,TX,78003
,,Bastrop,US,adopt@bastropanimalrescue.org,TX1636,30.1013,-97.2988,Bastrop Animal Rescue,,TX,78602
589 Coolwater,,Bastrop,US,wendy.ballard@co.bastrop.tx.us,TX2063,30.1013,-97.2988,Bastrop County Animal Shelter,(512) 549-5160,TX,78602
,,Baytown,US,adopt@adopttosave.org,TX2077,29.7722,-94.9792,A Life to Live,,TX,77521
P. O. Box 2772,,Baytown,US,baccr1@aol.com,TX189,29.7353,-94.9772,BACCR - Baytown Humane Society,(832) 414-3729,TX,77522
705 N Robert Lanier Drive,,Baytown,US,carianne.livengood@baytown.org,TX2260,29.7722,-94.9792,Baytown Animal Services,(281) 422-7600,TX,77521
,,Baytown,US,info@chipnsnip.org,TX2273,29.7722,-94.9792,Chip N Snip,,TX,77521
13695 Thousand Oaks,,Beaumont,US,allgodscreaturesbmt@wildblue.net,TX580,30.1321,-94.2297,All God's Creatures,(409)753-1365,TX,77713
1884 Pine Street,,Beaumont,US,animalservices@beaumonttexas.gov,TX1409,30.1115,-94.1179,Beaumont Animal Services,409-838-3304,TX,77703
2396 Dowlen Rd,,Beaumont,US,drvcpetmedicine@aol.com,TX1432,30.0946,-94.1603,Dowlen Road Veterinary Center,409-860-4386,TX,77706
2050 Spindletop Rd,P.O. Box 1629,Beaumont,US,hssetnowandforever@gmail.com,TX155,30.0858,-94.1017,Humane Society of Southeast Texas,(409) 833-0504,TX,77704
P.O. Box 12589,,Beaumont,US,jfkatlady@aol.com,TX120,30.0858,-94.1017,Life Force,409-656-9291,TX,77726
,,Bedford,US,koolkatsadoptions@yahoo.com,TX463,32.8556,-97.1406,Kool Kats Feline Rescue and Adoptions,,TX,76021
1809 Reliance Pkwy,,Bedford,US,tracy.robertson@bedfordtx.gov,TX272,32.8556,-97.1406,Bedford Animal Control,(817) 952-2191,TX,76021
,,Beeville,US,Lindapaawagsnwhiskers@gmail.com,TX202,28.4067,-97.7503,Pet Assistance Association of South Texas (PAA),(361) 343-2613,TX,78102
,,Bellaire,US,RockABullyAF@hotmail.com,TX2242,29.7056,-95.4586,Rock-A-Bully and Friends ,,TX,77402
7005 Mapleridge,,Bellaire,US,savapetwac@yahoo.com,TX1491,29.7047,-95.4591,"Sav-A-Pet, Inc.",713-385-2317,TX,77401
P.O. Box 615,,Bellville,US,joanne.klauber@gmail.com,TX928,29.9676,-96.2592,Animal Friends of Austin County,(979) 865-2525,TX,77418
P. O. Box 2173,,Belton,US,houston@petconnectrescue-tx.org,TX2185,31.0833,-97.4641,Pet Connect Rescue Inc.,,TX,76513
,,Belton,US,Pawsomerescue@gmail.com,TX2096,31.0833,-97.4641,Pawsome Exotic Small Mammal Sanctuary and Rescue,(254) 247-8231,TX,76513
PO Box 421,,Ben Wheeler,US,admin@vzchumanesociety.org,TX310,32.4454,-95.7064,Van Zandt County Humane Society,903-962-5700,TX,75754
,,Benbrook,US,information@bestfurfriendsrescue.org,TX2003,32.6569,-97.481,BFFs: Best Fur Friends Rescue,,TX,76126
,,Benbrook,US,LoneStarDobermanRescue@gmail.com,TX1741,32.6569,-97.481,Lone Star Doberman Rescue,,TX,76126
PO Box 126452,,Benbrook,US,petfinder@4pawsinc.org,TX337,32.6569,-97.481,4PAWS,email for more info  ,TX,76126
P.O. Box 4085,,Bergheim,US,Masonhaven48@yahoo.com,TX1854,29.8317,-98.5807,Mason's Haven,210-601-1107,TX,78004
,,Bertram,US,halfwaghouse@gmail.com,TX1881,30.7319,-98.0446,Half Wag House Rescue,3607403790,TX,78605
309 Misty Woods,,Bertram,US,sstrayacressanctuary@gmail.com,TX1819,30.7319,-98.0446,Stray Acres Sanctuary and Animal Rescue,512-525-4710,TX,78605
,,Big Spring,US,info@yellowroseanimalrescue.org,TX2164,32.2356,-101.4737,Yellow Rose Animal Rescue,,TX,79720
,,Blanco,US,bcacresoflove@gmail.com,TX2171,30.1029,-98.4242,Acres of Love Animal Rescue,(830) 392-6493,TX,78606
PO Box 159,,Blue Ridge,US,chloespetrescue@gmail.com,TX2214,33.2978,-96.4014,Chloe's Pet Rescue,2147639468,TX,75424
8430 Flint Rock Drive,,Boerne,US,charmingpetrescue@gmail.com,TX2043,29.7805,-98.7025,Charming Pet Rescue,,TX,78006
,,Boerne,US,fetchingfureverfamilies@gmail.com,TX1964,29.7805,-98.7025,Fetching Fur-ever Families,8303280066,TX,78006
,,Boerne,US,jmmartin77@hotmail.com,TX2176,29.7805,-98.7025,Pita's Pals Canine Rescue,210-708-7109,TX,78006
,,Boerne,US,wuprescue@whatsuppup.org,TX2066,29.7805,-98.7025,"What's Up, Pup? Rescue for Dogs, Inc.",,TX,78006
,,Bonham,US,bavbraveheart@yahoo.com,TX1707,33.5844,-96.1879,BAV-Braveheart Animal Volunteers,,TX,75418
,,Bonham,US,thoaboballen@yahoo.com,TX615,33.5127,-96.3952,AOHTs (All Our Hearts Together) Rainbow Bridge,903-815-5955 cell/text I-phone,TX,75491
P.O. Box 1344,,Boyd,US,chewyshope@yahoo.com,TX2008,33.0724,-97.5633,Chewy's Hope,(817) 307-0373,TX,76023
1804 Longwood Dr,,Brenham,US,aharper@cityofbrenham.org,TX359,30.164,-96.4,Brenham Humane Services,(979) 337-7351,TX,77833
PO Box 1107,,Brenham,US,help@t-bar.org,TX754,30.1667,-96.3975,True Blue Animal Rescue,(936) 878-2349,TX,77834
,,Bridgeport,US,jjohnson@cityofbridgeport.net,TX399,33.1892,-97.8058,Bridgeport Animal Shelter,940-683-3430,TX,76426
,,Bryan,US,caninecompassion@yahoo.com,TX1121,30.6882,-96.3726,Canine Compassion,,TX,77803
,,Bryan,US,doxierescuechic@gmail.com,TX1252,30.7089,-96.353,Long on Love Dachshund Rescue,979-229-4776,TX,77808
,,Bryan,US,info@adoptaggieland.org,TX2211,30.6637,-96.3306,Adopt Aggieland,,TX,77802
5359 Leonard Road,PO Box 392,Bryan,US,info@aggielandhumane.org,TX38,30.6359,-96.3637,Aggieland Humane Society,979-775-5755,TX,77801
2207 Finfeather Road,,Bryan,US,jburkhaltr@bryantx.gov,TX1598,30.6359,-96.3637,Bryan Animal Center,9792095260,TX,77801
,,Bryan,US,zoianimalrescue@yahoo.com,TX697,30.7089,-96.353,Zoi's Animal Rescue (Texas),(832) 767-8572,TX,77808
9840 W RANCH RD 1431,,Buchanan Dam,US,happydog@tstar.net,TX1125,30.7413,-98.4157,Happy Dog Adoption,512-793-4197,TX,78609
9150 W.RR 1431,,Buchanan Dam,US,hillcountryhs@gmail.com,TX95,30.7413,-98.4157,Hill Country Humane Society,512-793-5463,TX,78609
,,Buda,US,Hollyshoperescue@gmail.com,TX2270,30.0913,-97.8277,Holly's Hope Rescue,(512) 892-1600,TX,78610
PO Box 1005,,Buda,US,melissa@tlcanimalrescue.org,TX1921,30.0913,-97.8277,The Leisure Cat Animal Rescue,512-577-2318,TX,78610
,,Buffalo,US,waller_rescue@yahoo.com,TX1562,31.4062,-96.0007,Waller Rescue Ranch,(832) 541-4255,TX,75831
,,Bullard,US,animalrescue_15@yahoo.com,TX573,32.1473,-95.3752,Country Ladies Rescue,903-316-8485,TX,75757
,,Bullard,US,srgdrr.inc@gmail.com,TX2105,32.1473,-95.3752,SRGDRR Inc aka Save Rocky the Great Dane Rescue,,TX,75757
3563 Kingsnake,PO BOX 50,Bulverde,US,bahshelter@yahoo.com,TX774,29.757,-98.4878,Bulverde Area Humane Society,830-980-2247,TX,78163
,,Burleson,US,Almosthomeanimals@yahoo.com,TX2048,32.5365,-97.3192,Almost Home Animal Rescue,3092995665,TX,76028
,,Burleson,US,blueangelweims@att.net,TX2092,32.5365,-97.3192,Blue Angel Weimaraner Rescue,,TX,76028
Wildwood Lane,,Burleson,US,info@nplhpetsitters.com,TX1828,32.5365,-97.3192,No Place Like Home,8177074239,TX,76028
,,Burleson,US,rescuemetx@gmail.com,TX2199,32.5365,-97.3192,"SAFE in Texas, Inc.",8179371783,TX,76028
3389 FM 3211,,Caddo Mills,US,info@thechickwithpits.org,TX1887,33.0646,-96.2247,The Chick With Pits,4697088297,TX,75135
,,Campbell,US,savecatsanddogs@yahoo.com,TX2200,33.1482,-95.9514,No Kill Hunt County and Surrounding Areas,,TX,75422
2170 Old Sattler Road,"Canyon Lake, TX 78133",Canyon Lake,US,canyonlakeanimalshelter@gmail.com,TX267,29.862,-98.2687,Canyon Lake Animal Shelter Society,830-899-2527,TX,78133
P.O. Box 112341,,Carrollton,US,adopt@msrnt.com,TX706,32.9536,-96.89,Miniature Schnauzer Rescue of North Texas,,TX,75011
,,Carrollton,US,can.adoptions@yahoo.com,TX443,32.9662,-96.8835,Companion Animal Network,903-967-3226,TX,75006
PO Box 118891,,Carrollton,US,contact@texashuskyrescue.org,TX1326,32.9536,-96.89,Texas Husky Rescue,877-TX-HUSKY(894-8759),TX,75011
PO Box 117190,,Carrollton,US,dianecat@flash.net,TX146,32.8942,-96.8555,Spay Neuter Your Pet (S.N.Y.P.),214-349-7697,TX,75229
P O Box 116225,,Carrollton,US,info@bassetrescueacrosstexas.org,TX1552,32.9536,-96.89,"Basset Rescue Across Texas, Inc.",,TX,75011
P O Box 116256,,Carrollton,US,lostpawsrescueoftexas@yahoo.com,TX671,32.9536,-96.89,Lost Paws Rescue of Texas,972-394-9373,TX,75011
3201 Earhart Dr,,Carrollton,US,ok@operationkindness.org,TX106,32.9662,-96.8835,Operation Kindness,(972) 418-PAWS (7297),TX,75006
1884 Bostik Road,,Cat Spring,US,katyrescue@ymail.com,TX1816,29.8454,-96.326,PUPS - Prevent Unwanted Pets of Cat Spring,9797325591,TX,78933
P.O. Box 309,,Cedar Creek,US,adette@pawsitively.org,TX1612,30.0698,-97.5313,I Once Was Lost Animal Advocacy,512 796 9016,TX,78612
PO Box 561,,Cedar Creek,US,Bastropcats@gmail.com,TX2182,30.0698,-97.5313,Bastrop C.A.T.S.,,TX,78612
1150 E. Pleasant Run Rd.,,Cedar Hill,US,tricities@cedarhilltx.com,TX401,32.5917,-96.9364,Tri-City Animal Shelter,(972) 291-5335,TX,75104
,,Cedar Park,US,austincatsanddogsrescue@gmail.com,TX2240,30.4978,-97.8159,Austin Cats and Dogs Rescue,(512) 669-2269,TX,78613
1321 W. New Hope Drive,,Cedar Park,US,info@austindogalliance.org,TX1110,30.4978,-97.8159,The Dog Alliance,(512) 335-7100,TX,78613
,,Cedar Park,US,sue3574@yahoo.com,TX765,30.4978,-97.8159,CARE Companion Animal Rescue Effort,,TX,78613
,,Childress,US,happytailschildress@yahoo.com,TX2243,34.4252,-100.2091,Happy Tails Rescue,(940) 937-6065,TX,79201
,,Clarksville,US,doglady2222@icloud.com,TX1574,33.613,-95.0534,PupYourRide,903-715-0638,TX,75426
2375 Service Drive,PO Box 677,Cleburne,US,acunit@cleburne.net,TX587,32.3475,-97.3864,Cleburne Animal Shelter,817-556-8895,TX,76033
PO Box 2487,,Cleburne,US,info@jchspets.com,TX212,32.3475,-97.3864,Johnson County Humane Society,817-240-1200,TX,76033
PO Box 14,,Clifton,US,graymuttsrescue@gmail.com,TX2205,31.7888,-97.5893,Gray Mutts Rescue and Sanctuary,(254) 218-4167,TX,76634
3556 CR. 275,,Clyde,US,maria.renate@yahoo.com,TX450,32.4037,-99.4963,City Of Clyde Animal Shelter,1-325-893-2963,TX,79510
,,Coldspring,US,capekittyrescue@yahoo.com,TX2280,30.6189,-95.1417,Cape Kitty Rescue,(713) 818-1645,TX,77331
Aggieland Animal Health Center,13223 Wellborn Rd,College Station,US,AAHC@AGGIELANDANIMALHEALTHCENTER.COM,TX582,30.5672,-96.2963,Second Chance Veterinary Rescue,979-764-7387,TX,77845
,,College Station,US,april@mylongwayhome.org,TX1607,30.5672,-96.2963,Long Way Home Animal Rescue,please email,TX,77845
PO Box 11773,,College Station,US,BCSSpayDay@gmail.com,TX1772,30.6278,-96.3342,BCS Spay,(979) 393-0043,TX,77842
P.O Box 521,,Colleyville,US,homelesshounds2016@gmail.com,TX2177,32.8865,-97.1478,Homeless Hounds Animal Rescue,817-821-4942,TX,76034
,,Colleyville,US,info@salvagedsoulspetrescue.org,TX2252,32.8865,-97.1478,Salvaged Souls Pet Rescue,(817) 988-3649,TX,76034
P.O. Box 1892,,Colleyville,US,rescue@dfwdachshund.com,TX686,32.8865,-97.1478,Dallas-Fort Worth Dachshund Rescue Foundation,(817) 481-9272,TX,76034
,,Colorado City,US,petsneedingparents@gmail.com,TX2264,32.3917,-100.8571,Pets Needing Parents,(888) 495-5553,TX,79512
901 E. Flemming,,Comanche,US,comancheapa@gmail.com,TX1996,31.9207,-98.5888,Comanche Animal Shelter,817-845-2169,TX,76442
702 FM 289,,Comfort,US,brandy.ripley@co.kendall.tx.us,TX1655,29.9655,-98.891,Kendall County Animal Shelter,830-537-3430,TX,78013
1203 ONeal,,Commerce,US,commerceanimals@gmail.com,TX1851,33.2456,-95.9003,Commerce Animal Shelter,(903) 886-1160,TX,75428
,,Conroe,US,adopt@puremuttsanimalsanctuary.com,TX1256,30.2402,-95.4931,Pure Mutts Animal Sanctuary,832-955-8100,TX,77384
PO Box 2573,,Conroe,US,adoptions@reggiesfriends.org,TX1924,30.3117,-95.4558,Reggie's Friends- Houston,,TX,77306
2608 Industrial Lane,,Conroe,US,chancetobloom@gmail.com,TX2216,30.3087,-95.4525,A Chance to Bloom,(936) 333-1416,TX,77301
,,Conroe,US,recycledpoms@suddenlink.net,TX1370,30.3344,-95.5054,Recycled Poms - Houston,979 417 9180,TX,77304
6315B FM 1488  #131,,Conroe,US,safehouse74@hotmail.com,TX441,30.2402,-95.4931,S.A.F.E. House Rescue and Adoption,(281) 370-0133,TX,77384
8535 State Highway 242,,Conroe,US,shelter.counter@mctx.org,TX1003,30.1913,-95.4229,Montgomery County Animal Shelter,(936) 442-7738,TX,77385
,,Conroe,US,spca_rescue@yahoo.com,TX92,30.3117,-95.4558,SPCA PETS SNAP of Montgomery County Texas,,TX,77305
P.O. Box 644,9634 Schaefer Rd.,Converse,US,casipets@sbcglobal.net,TX367,29.5223,-98.3217,Converse Animal Shelter Inc,(210) 658-4821,TX,78109
821 S. Coppell Rd.,,Coppell,US,AnimalServices@coppelltx.gov,TX78,32.9641,-96.982,City of Coppell Animal Services & Adoption Cent,(972) 304-3515,TX,75019
PO Box 453,,Coppell,US,fetch@epicanimalrescue.org,TX2186,32.9641,-96.982,Epic Animal Rescue,(469) 630-1701,TX,75019
PO Box 1561,,Coppell,US,moreinfo@coppellhumanesociety.com,TX114,32.9641,-96.982,Coppell Humane Society,972-462-1121,TX,75019
,,Copperas Cove,US,rainbowdogstx@gmail.com,TX1605,31.1209,-97.9056,Rainbow Dogs,,TX,76522
,,Corinth,US,tntpaws@gmail.com,TX1596,33.1547,-97.0663,Pets Assisting Wounded Soldiers,940-642-8779,TX,76210
PO Box 8575,,Corpus Christi,US,adoptions@thecatterycc.org,TX1135,27.6759,-97.3673,The Cattery,361-854-MEOW,TX,78414
P.O. Box 8122,,Corpus Christi,US,fortheloveofstrays@yahoo.com,TX1355,27.8003,-97.3961,For The Love of Strays,(361) 462-7911,TX,78468
3118 Cabaniss Parkway,,Corpus Christi,US,gchs@gchscc.org,TX476,27.732,-97.415,Gulf Coast Humane Society,361-225-0845,TX,78415
,,Corpus Christi,US,info@missionpawsiblecc.org,TX2094,27.732,-97.415,Mission Pawsible Animal Assistance,361-277-1731,TX,78415
P.O. Box 407,,Corsicana,US,fosterfolks@projectpawz.com,TX1258,32.0953,-96.4686,Project Pawz,,TX,75151
617 S. 12th St,,Corsicana,US,kasta@ci.corsicana.tx.us,TX533,32.0966,-96.4854,City of Corsicana Animal Shelter,(903) 654-4928,TX,75110
,,Covington,US,drowzydawg@gmail.com,TX1938,32.1775,-97.2589,Drowzy Dawg Rescue,817-726-8380,TX,76636
PO Box 561,561 N. Front St.,Crosbyton,US,arcc.rescue@gmail.com,TX2053,33.6608,-101.2371,Animal Rescue of Crosby County,,TX,79322
11450 US Hwy 380; Suite 130-240,,Cross Roads,US,iamdogrescue@gmail.com,TX2059,33.2228,-96.999,I Am Dog Rescue INC,9402020951,TX,76227
101 E. Hampton Rd,,Crowley,US,smansfield@ci.crowley.tx.us,TX795,32.5764,-97.3838,City Of Crowley Animal shelter,817-297-2201 ext. 3300,TX,76036
18062 FM 529 Rd  Suite 161,(Cats Only - Foster-Only - No Shelter),Cypress,US,info@purrpawsrescue.org,TX1008,29.8801,-95.7029,Purr Paws Rescue Inc,281-826-2287,TX,77433
,,Cypress,US,lisa@newbestfriend.org,TX1602,29.8801,-95.7029,New Best Friend Rescue,,TX,77433
,,Cypress,US,luckymuttrescuecypress@gmail.com,TX1870,29.8801,-95.7029,Cypress Lucky Mutt Rescue,,TX,77433
,,Daingerfield,US,dftxshelter@yahoo.com,TX543,33.0354,-94.7265,City of Daingerfield,903/645-2120,TX,75638
,,Dallas,US,adbadoptions@yahoo.com,TX684,32.7942,-96.7652,A Different Breed Animal Rescue,(972) 896-6313,TX,75360
,,Dallas,US,adopt@codysfriendsrescue.com,TX1568,32.97,-96.7924,Cody's Friends Rescue,,TX,75248
,,Dallas,US,adopt@dallaspetsalive.org,TX1730,32.8128,-96.8126,Dallas Pets Alive,(214) 444-9372,TX,75219
,,Dallas,US,adopt@heartsandbonesrescue.com,TX2215,32.8266,-96.7705,Hearts and Bones Rescue,,TX,75206
,,Dallas,US,adopt@southcentralbloodhounds.org,TX882,32.8942,-96.8555,South Central Bloodhound Club,479/443-2775,TX,75229
,,Dallas,US,adopt@thelovepitrescue.org,TX2123,32.8752,-96.7092,The Love Pit,,TX,75238
18484 Preston Rd.,Suite 102 PMB 169,Dallas,US,adoption@texascares.org,TX105,32.9951,-96.7957,Texas CARES,972-633-CATS,TX,75252
PMB 352,"3100 Independence Pkwy., Ste. 311",Dallas,US,adoptions@dfwlabrescue.org,TX436,33.0551,-96.7371,Dallas Fort Worth Labrador Rescue,(469) 213-0271,TX,75023
2719 Manor Way,,Dallas,US,adoptions@dognkittycity.org,TX72,33.0646,-96.2247,Humane Society of Dallas,214-350-7387,TX,75135
P.O. Box 190473,,Dallas,US,adoptions@earstexas.org,TX1050,32.8128,-96.8126,Education and Animal Rescue Society (EARS),214-559-2817,TX,75219
,,Dallas,US,adoptions@furryfriendzy.org,TX1243,32.7868,-96.8022,Furry Friendzy,(214) 914-2535,TX,75201
P.O. Box 2286,,Dallas,US,adoptions@lonestarlabrescue.org,TX654,32.97,-96.7924,Lone Star Labrador Retriever Rescue,(214) 855-1515,TX,75248
4447 N. Central Expwy.,"Suite 110, PMB 116",Dallas,US,artadoptions@animalrescueoftexas.org,TX800,32.8354,-96.7946,Animal Rescue of Texas (ART),(214) 276-7802,TX,75205
,,Dallas,US,astruse@yahoo.com,TX1833,32.8448,-96.6989,Angie's Friends,(678) 665-8571,TX,75218
4347 W. Northwest Highway,"Suite 120,  Box 184",Dallas,US,bark@WeimRescueTexas.org,TX86,32.869,-96.8574,Weimaraner Rescue of Texas,972-994-3572,TX,75220
,,Dallas,US,dallascatladyadoptions@gmail.com,TX221,32.8241,-96.6811,Dallas Cat Lady Adoptions,214-766-6741,TX,75228
,,Dallas,US,DARLINGPOUNDHOUNDS@yahoo.com,TX1721,32.9951,-96.7957,Darling Pound Hounds,469-955-5613,TX,75252
1818 N. Westmoreland,,Dallas,US,dasadopt@dallascityhall.com,TX236,32.7815,-96.8694,Dallas Animal Services & Adoption Center,214-671-0249,TX,75212
,,Dallas,US,dfwfgf@gmail.com,TX1754,32.7683,-96.6865,DFW FurGotten Friends,,TX,75227
,,Dallas,US,dogsetc.texas@yahoo.com,TX1795,32.7833,-96.8,Dogs Etc of Texas,817-219-6748,TX,75313
10101 E. Northwest Hwy.,,Dallas,US,elpo@welovepets.net,TX406,32.8752,-96.7092,East Lake Pet Orphanage,214-342-3100,TX,75238
P.O. Box 703967,,Dallas,US,info@greyhoundsunlimited.org,TX881,32.78,-96.81,Greyhounds Unlimited,972-503-GREY (4739),TX,75370
,,Dallas,US,info@northtexasboxerrescue.org,TX2179,32.8652,-96.7906,North Texas Boxer Rescue,,TX,75225
,,Dallas,US,info@recycledpomeranians.com,TX150,32.521,-96.8213,Recycled Poms and Schipperkes,(214) 775-0648,TX,75154
,,Dallas,US,info@thestreetdogproject.org,TX2154,32.97,-96.7924,The Street Dog Project,,TX,75248
,,Dallas,US,info@wrnt.org,TX956,32.97,-96.7924,Westie Rescue North Texas,(877) 568-2580,TX,75248
,,Dallas,US,khristy_hullett@hotmail.com,TX2074,32.8268,-96.7477,Bull luv able Paws and Chi Wawas Rescue,,TX,75214
,,Dallas,US,lashton@swbell.net,TX551,32.8266,-96.7705,Texas Pawprints Cat & Kitten Rescue,214-912-2573,TX,75206
,,Dallas,US,lifelongres@gmail.com,TX1338,32.8241,-96.6811,Life Long Rescue (LLR),469-474-3472,TX,75228
,,Dallas,US,mmuttsrescue@gmail.com,TX2230,32.9917,-96.8319,Millie's Mutts,(469) 319-2169,TX,75287
PO Box 132884,,Dallas,US,northtexasscottierescue@gmail.com,TX921,32.7833,-96.8,"North Texas Scottie Rescue, Inc.",,TX,75313
,,Dallas,US,pawsofloveanimalrescue@yahoo.com,TX2050,32.8942,-96.8555,Paws of Love Animal Rescue,,TX,75229
,,Dallas,US,petrescue13@gmail.com,TX521,32.8461,-96.8252,Elle's Legacy,214-228-7936,TX,75209
,,Dallas,US,rescue@ilcanerosso.com,TX2129,32.7906,-96.8266,Cane Rosso Rescue,(972) 323-8367,TX,75207
,,Dallas,US,rescue@newlifeifs.org,TX2159,32.9101,-96.7316,New Life Individual and Family Services,(214) 484-7363,TX,75243
P. O. Box 551265,"Dallas, TX  75355",Dallas,US,Rescue@scottiekingdom.com,TX618,32.7833,-96.8,"Scottie Kingdom Rescue, Inc.",www.scottiekingdom.com,TX,75355
,,Dallas,US,sara@dashdog.org,TX1353,32.97,-96.7924,DASH Dog Rescue,,TX,75248
2400 Lone Star Drive,,Dallas,US,spca@spca.org,TX198,32.7906,-96.8266,SPCA of Texas-Dallas,214-742-SPCA (7722),TX,75207
5500 Greenville Avenue,,Dallas,US,spca@spca.org,TX2028,32.8266,-96.7705,SPCA of Texas - Petsmart Greenville Ave,214-742-7722,TX,75206
,,Dallas,US,tammy@dfwrescueme.org,TX1530,32.8268,-96.7477,DFW Rescue Me,,TX,75214
PO Box  212,,Dallas,US,txecr11@gmail.com,TX1208,32.8942,-96.8555,Texas Exotic Cat Rescue,please email ,TX,75229
"1816 FM 51, Ste.400-136",,Decatur,US,manypawsrescue@gmail.com,TX2114,33.229,-97.5861,ManyPaws Rescue,,TX,76234
,,Del Rio,US,apetswishrescue@yahoo.com,TX1949,29.3625,-100.8964,A Pets Wish Rescue,830-313-8799,TX,78842
P.O. Box  1330,,Denison,US,denisonanimals@gmail.com,TX1965,33.7556,-96.5364,Denison Animal Welfare Group,903.361.4211,TX,75021
1155 Union Circle #310156,,Denton,US,dallas.newell@unt.edu,TX868,33.2147,-97.1328,UNT Feral Cat Rescue Group,(940) 390-0555,TX,76203
,,Denton,US,dhsofficemanager@aol.com,TX93,33.1661,-97.0939,Denton Humane Society,(940) 382-7387,TX,76205
"624 W. University Dr., #356",,Denton,US,nanaspitstop@ntin.net,TX2130,33.2187,-97.1168,Nana's PIT Stop & Bully Breed Rescue,(940) 368-9132,TX,76201
1441 South Loop 288,,Denton,US,nhowery@spca.org,TX2024,33.1661,-97.0939,SPCA of Texas - Denton,214-742-7722,TX,76205
3717 N Elm Street,,Denton,US,Police.AnimalServices@cityofdenton.com,TX79,33.1661,-97.0939,City of Denton Animal Services,(940) 349-7594,TX,76205
,,Denton,US,wildrescuetexas@gmail.com,TX168,33.2187,-97.1168,"WildRescue, Inc.",940-442-8289,TX,76201
3811 Dickinson Ave,,Dickinson,US,info@bayouanimalservices.org,TX2118,29.4538,-95.0518,Bayou Animal Services,281-337-3117,TX,77539
135 Double Oaks Drive,,Double Oak,US,CrystalCreek4@juno.com,TX1065,33.0417,-96.9829,Lone Star Bernese Mountain Dog Rescue Inc,469-323-2038,TX,75077
PO Box 1578,,Dripping Springs,US,gsdrescuectx@yahoo.com,TX280,30.2255,-98.0751,German Shepherd Rescue Central Texas,,TX,78620
PO Box 693,,Dripping Springs,US,lizzyshospice@gmail.com,TX1918,30.2255,-98.0751,Lizzy's Hospice House,,TX,78620
4925 Bell Springs Rd,,Dripping Springs,US,sdiadoptions@gmail.com,TX798,30.2255,-98.0751,Service Dogs Inc.,512-858-1495,TX,78620
,,Duncanville,US,bestfriends1147@gmail.com,TX1251,32.6592,-96.9105,Bestfriends Animal Rescue Club  (BARC),,TX,75116
,,Edgewood,US,petfinder@camplonestarrescue.org,TX994,32.6974,-95.8867,"Camp Lone Star Rescue, Inc.",,TX,75117
103 N. Allen Street,,Edna,US,animalcontrol@cityofedna.com,TX1817,29.1347,-96.6297,City of Edna Animal Shelter,(361) 782-5271,TX,77957
101 N Wharton Street,,El Campo,US,mjurasek@cityofelcampo.org,TX2023,29.2044,-96.2608,City of El Campo Animal Control,979-541-5097,TX,77437
7256 La Junta,"Canutillo, Texas 79835",El Paso,US,info@arlep.org,TX123,31.9568,-106.595,Animal Rescue League of El Paso,(915)877-5002,TX,79821
14911 McCracken Drive,,El Paso,US,pgawaep@gmail.com,TX362,31.7586,-106.4864,Pet Guardian Angel Welfare Association,915-598-0411,TX,79938
,,El Paso,US,phantom.rules@yahoo.com,TX1244,31.8418,-106.537,Scooter's Place,(915) 525-1935,TX,79912
4991 Fred Wilson,"El Paso, TX 79906",El Paso,US,,TX268,31.7684,-106.4284,Humane Society of El Paso,(915)532-6971 Ext 7,TX,79905
,,Elgin,US,VillageRescue@gmail.com,TX1422,30.3246,-97.3719,Companion Connection,(512) 285-5620,TX,78621
,,Ennis,US,merlinshoperagdollrescue@gmail.com,TX810,32.339,-96.6413,Merlin's Hope Ragdoll Rescue,,TX,75119
,,Euless,US,dooderbomb@aol.com,TX718,32.827,-97.1039,Texas Labrador Retriever Rescue Inc.,(817) 723-8705,TX,76040
P. O. Box 1519,,Euless,US,info@dfwtzusandmorerescue.com,TX1098,32.827,-97.1039,DFW TZUS and More Rescue,888-290-3335,TX,76040
,,Euless,US,PacoCorpRescue@gmail.com,TX2279,32.8617,-97.086,PacoCorp Rescue,(682) 503-1837,TX,76039
1517 Westpark Way,,Euless,US,trinitygapclub@gmail.com,TX265,32.827,-97.1039,Euless Animal Services - Trinity GAP Rescue,817-685-1594,TX,76040
3961 Bluebell Dr.,,Everman,US,evermanaco3961@gmail.com,TX1928,32.6374,-97.2741,City of Everman Animal Shelter,(817) 561-5495,TX,76140
3727 Valley View Lane,,Farmers Branch,US,animalservices@farmersbranchtx.gov,TX341,32.9289,-96.8758,Farmers Branch Animal Adoption Center,(972) 919-8770,TX,75234
,,Farmers Branch,US,info@wfhrescue.org,TX1747,32.9289,-96.8758,Wishing Furr Homes Animal Rescue of Farmers Branch,,TX,75234
,,Farmersville,US,glorybegood@gmail.com,TX1500,33.1599,-96.3674,Heaven Can Wait Animal Rescue,(214) 682-0095,TX,75442
P.O. Box 75,,Fischer,US,CatAlliesofTexas@gmail.com,TX2124,29.975,-98.267,Cat Allies of Texas Rescue,8302372002,TX,78623
,,Floresville,US,Hound.Haven@GMail.Com,TX965,29.1538,-98.1885,Hound Haven & Friends Adoptions,,TX,78114
PO Box 494,,Floresville,US,Kim@dogsrus.org,TX288,29.1538,-98.1885,Las Lomas K9 Rescue & Adoption Foundation,,TX,78114
,,Flower Mound,US,adopt@humanetomorrow.org,TX70,33.0364,-97.0712,Humane Tomorrow,972-691-7387,TX,75028
3950 Justin Road,,Flower Mound,US,animalservices@flower-mound.com,TX681,33.0364,-97.0712,Animal Adoption Center of Flower Mound,972-874-6390,TX,75028
,,Flower Mound,US,Cybru@hotmail.com,TX1979,33.0364,-97.0712,One by One Pet Rescue,,TX,75028
,,Flower Mound,US,info@arftx.com,TX1656,33.0283,-97.0927,Animal Rescue Foundation of Texas,(972) 318-9650,TX,75022
201 Holly Leaf Trail,,Forney,US,animalshelter@cityofforney.org,TX2145,32.7474,-96.4576,Forney Animal Shelter,(972) 564-7397,TX,75126
P.O. Box 1156,701 E. Compromise St.,Fort Davis,US,info@grandcompanions.org,TX570,30.5882,-103.8946,Grand Companions Humane Society,432.426.3724,TX,79734
PO Box 151731,,Fort Worth,US,aharinquiry@gmail.com,TX2012,32.7623,-97.4746,Allie's Haven Animal Rescue,817-752-4101,TX,76108
,,Fort Worth,US,alleycatangels.texas@yahoo.com,TX1192,32.7469,-97.2638,AlleyCat Angels of Texas,(817) 429-2592,TX,76103
PO Box 123593,,Fort Worth,US,contactbpcr@gmail.com,TX1381,32.7253,-97.3206,Buddies Place Rescue,,TX,76121
P. O. Box 101133,,Fort Worth,US,cowtownpets@gmail.com,TX1052,32.7623,-97.4746,Cowtown Loves Animal Shelter Pets,(817) 886-7300,TX,76108
,,Fort Worth,US,cpcrn@cairnrescue.com,TX915,32.8663,-97.2894,Col Potter Cairn Rescue Network-South Central,,TX,76137
,,Fort Worth,US,forgottentails@gmail.com,TX1458,32.8713,-97.4011,Forgotten Tails Animal Rescue,406-599-9316,TX,76179
PO  Box 161792,,Fort Worth,US,grralliance@gmail.com,TX1512,32.7253,-97.3206,Golden Retriever Rescue Alliance,,TX,76161
,,Fort Worth,US,harboredsouls@gmail.com,TX1523,32.8713,-97.4011,Harbored Souls Rescue,,TX,76179
6708 S. Hulen,,Fort Worth,US,info@animalhope.org,TX2033,32.6536,-97.3776,Animal Hope,817-984-1129,TX,76133
1840 East Lancaster Ave.,,Fort Worth,US,Info@hsnt.org,TX309,32.7469,-97.2638,Humane Society of North Texas,(817) 332 - HSNT,TX,76103
,,Fort Worth,US,info@muttsandmittens.org,TX2170,32.6761,-97.4056,Mutts & Mittens,817-896-6137,TX,76132
P O Box 24837,,Fort Worth,US,info@ninjapaws.xyz,TX2081,32.7253,-97.3206,Ninja Paws Rescue,,TX,76124
PO Box 121522,"Fort Worth, TX  76121",Fort Worth,US,klffwtx54@gmail.com,TX316,32.6536,-97.3776,Paws & Claws Rescue Inc.,,TX,76133
,,Fort Worth,US,koolkatskanines@aol.com,TX944,32.6569,-97.481,Kool Kats and Kanines,(817) 991-0729,TX,76126
,,Fort Worth,US,LLLOADOPT@yahoo.com,TX1348,32.7799,-97.3014,Lucy's Lost Loved Ones,,TX,76111
160 E. Bluff Spring Road,,Fort Worth,US,marylynnr@sbcglobal.net,TX352,32.7253,-97.3206,Island Girl Animal Rescue Society Inc.,,TX,76161
1501 Handley,,Fort Worth,US,miguel.hughes@sbcglobal.net,TX1897,32.7481,-97.2187,"The Fresca Fund, Inc.",817-798-8416,TX,76112
,,Fort Worth,US,pattie@brittanyrescueintexas.org,TX1467,32.6536,-97.3776,"Brittany Rescue in Texas, Inc.",(888) 552-7488,TX,76133
,,Fort Worth,US,purrdeleashproject@gmail.com,TX2275,32.7073,-97.3376,Purr De Leash Project,(870) 283-9805,TX,76110
PO Box 11887,,Fort Worth,US,recyclelovear@aol.com,TX1963,32.7073,-97.3376,Recycled Love Animal Rescue,817-832-1207,TX,76110
,,Fort Worth,US,tall.tails@yahoo.com,TX1542,32.7253,-97.3206,Tall Tails Rescue,817-496-0521,TX,76124
3515 Sycamore School Rd,Suite 125-103,Fort Worth,US,taoanimalrescue@yahoo.com,TX1782,32.6536,-97.3776,TAO Animal Rescue ( The Abandoned Ones),(817) 915-3767,TX,76133
4900 Martin Street,,Fort Worth,US,,TX26,32.6931,-97.2643,City of Fort Worth Animal Shelter,(817) 392-1234,TX,76119
2981 S. Hwy 16,,Fredericksburg,US,info@hillcountryspca.com,TX216,30.2765,-98.8727,Hill Country SPCA,830-990-9085,TX,78624
PO Box 2685,,Fredericksburg,US,info@risingdoverescue.com,TX1832,30.2765,-98.8727,Rising Dove Rescue,,TX,78624
219 Landfill Lane,,Fredericksburg,US,ygerhardt@fbgtx.org,TX911,30.2765,-98.8727,City of Fredericksburg Animal Shelter,830 997-1907,TX,78624
,,Friendswood,US,fahnotify@gmail.com,TX2231,29.5181,-95.2034,Family Animal Hospital,(281) 482-1594,TX,77546
P.O. Box 722,,Friendswood,US,friendswoodanimaladvocates@gmail.com,TX1460,29.5181,-95.2034,Friendswood Animal Advocates,,TX,77549
3000 W. Parkwood,,Friendswood,US,rstenstrom@ci.friendswood.tx.us,TX989,29.5181,-95.2034,City of Friendswood Animal Control,281-996-3390,TX,77546
,,Frisco,US,bigbird695@yahoo.com,TX1403,33.1421,-96.7975,Ragdoll Rescue USA South,,TX,75034
P.O. Box 2655,,Frisco,US,fhsadmin@friscohumanesociety.com,TX306,33.1421,-96.7975,Frisco Humane Society,(972) 498-8980,TX,75034
,,Frisco,US,reneen.rescuerow@outlook.com,TX2232,33.2559,-96.8853,Rescue Row,(214) 430-8736,TX,75033
307 Main St,Suite 135,Frisco,US,vet-care@maziesmission.org,TX1433,33.1509,-96.8238,Mazie's Mission,(214) 436-4591,TX,75035
,,Fulshear,US,abr.tx@americanbrittanyrescue.org,TX1337,29.6714,-95.9334,American Brittany Rescue-TX,(866) 274-8911,TX,77441
1308 Myrtle St,,Fulton,US,adopt.hsacrockport@gmail.com,TX796,28.062,-97.0386,Humane Society and Adoption Center of Rockport-Fulton,361-729-8186,TX,78358
2501 N Weaver,,Gainesville,US,noahsarktx@yahoo.com,TX905,33.6211,-97.1237,Noah's Ark Animal Shelter,940 665 9800,TX,76240
P O Box 1286,,Gainesville,US,savingbostons@americanbostonterrierrescue.org,TX304,33.6211,-97.1237,American Boston Terrier Rescue,(972) 407-4440,TX,76240
5401 North Garland Avenue,,Garland,US,Adoptions@nbcrtx.org,TX840,32.9223,-96.6278,New Beginnings Cat Rescue,,TX,75040
,,Garland,US,ntrs_tx@yahoo.com,TX780,32.9166,-96.6757,North Texas Rabbit Sanctuary,,TX,75042
,,Garland,US,savingpyrsinneed@yahoo.com,TX591,32.8575,-96.6023,SPIN (Saving Pyrs In Need): A Great Pyrenees Rescue,,TX,75043
110 W L Walden Dr,P.O. Box 409,Georgetown,US,animalsvc@georgetown.org,TX34,30.6325,-97.6769,Georgetown Animal Shelter,(512) 930-3592,TX,78627
P.O. Box 1684,,Georgetown,US,txcodigirl@gmail.com,TX851,30.6325,-97.6769,Georgetown Animal Outreach,,TX,78627
1855 SE Inner Loop,,Georgetown,US,wcras@wilco.org,TX993,30.634,-97.6721,Williamson County Regional Animal Shelter,512-943-3322,TX,78626
,,Gilmer,US,contact@hopeforpetsrescue.com,TX1943,32.7324,-94.9483,Upshur County Hope House for Pets,(903) 309-3796,TX,75644
P. O. Box 189,,Godley,US,HomeAtLastAnimal@gmail.com,TX1610,32.4542,-97.5228,Home At Last Animal Haven  [HALAH],,TX,76044
P. O. Box 304,,Goliad,US,goliadpetadoption@yahoo.com,TX485,28.8575,-97.3419,"Goliad Pet Adoption, Inc.",361-645-1503,TX,77963
505 St. Francis,,Gonzales,US,fogas@stx.rr.com,TX649,29.5067,-97.4502,Friends of Gonzales Animal Shelter,830 857-1616,TX,78629
400 CR 488,P.O.Box 192,Gonzales,US,gonzalesdog@gmail.com,TX1601,29.5067,-97.4502,Gonzales Dog Adoptions,,TX,78629
,,Graham,US,faerydogrescue@gmail.com,TX483,33.1081,-98.5801,"Corgi & Critters N.E.T. Rescue, Inc.",,TX,76450
,,Graham,US,faerydogrescue@gmail.com,TX1532,33.1081,-98.5801,Faerydog Corgi Rescue,,TX,76450
2885 Fall Creek Hwy.,,Granbury,US,friends@granburyadoptapet.org,TX62,32.4409,-97.7335,Friends for Animals Adoption Shelter,(817) 326-3647,TX,76049
1550 Weatherford Hwy,,Granbury,US,hcac@co.hood.tx.us,TX1342,32.4201,-97.7712,Hood County Sheriff Animal Control,817-573-4277,TX,76048
,,Granbury,US,HoodCoAnimalLoversOrganization@gmail.com,TX1570,32.4201,-97.7712,Hood Co Animal Lovers Organization,(817) 564-2085,TX,76048
PO Box 1085,,Granbury,US,secondchancefarmgranbury@gmail.com,TX2141,32.4201,-97.7712,Second Chance Farm,817 243 8172,TX,76048
PO Box 531209,,Grand Prairie,US,achrescue@gmail.com,TX1505,32.7641,-97.012,All Canine Haven Rescue,214-242-3212,TX,75050
2222 West Warrior Trail,,Grand Prairie,US,animaldispatch@gptx.org,TX1659,32.6794,-97.02,Grand Prairie Animal Services,972-237-8575,TX,75052
,,Grand Prairie,US,ForgottenSoulsBullyRescue@outlook.com,TX1958,32.7641,-97.012,Forgotten Souls Bully Rescue,,TX,75050
,,Grand Prairie,US,gpcatcrew@gmail.com,TX2201,32.6794,-97.02,Grand Prairie CAT CREW,,TX,75052
,,Grand Prairie,US,mini-mutts@outlook.com,TX2184,32.7641,-97.012,Mini Mutts Animal Rescue,,TX,75050
P.O.Box 532363,,Grand Prairie,US,petsluv@risebroadband.net,TX1419,32.7458,-96.9975,Pets Luv Furever Animal Rescue,(817) 264-7080,TX,75053
2309 West Interstate 20,,Grand Prairie,US,spca@spca.org,TX2026,32.6794,-97.02,SPCA of Texas - Grand Prairie,214-742-7722,TX,75052
500 Shady Brook Drive,,Grapevine,US,animalservices@grapevinetexas.gov,TX444,32.9341,-97.0945,Grapevine Animal Services,817-410-3370,TX,76051
PO BOX 2591,,Grapevine,US,dfwpugrescue96@yahoo.com,TX1276,32.9342,-97.0778,DFW Pug Rescue,817-481-2004,TX,76099
,,Grapevine,US,dogs@caninesoulmates.com,TX1321,32.9342,-97.0778,Canine Soulmates Rescue,,TX,76099
P.O. Box 3229,,Grapevine,US,info@bassetrescuedfw.org,TX103,32.9342,-97.0778,North Texas Basset Hound Rescue Inc.,(817) 366-5649,TX,76099
5800 Joe Ramsey Blvd.,,Greenville,US,animalcontrol@ci.greenville.tx.us,TX677,33.098,-96.1002,Greenville Animal Control Shelter,903-457-2990,TX,75402
5900 Jack Finney Blvd,,Greenville,US,info@turtlecreekvmc.com,TX1504,33.098,-96.1002,Turtle Creek Veterinary Medical Center,(903)454-6222,TX,75402
,,Greenville,US,lonestarakitarescue@aol.com,TX1392,33.098,-96.1002,Lone Star Akita Rescue,903-450-7707,TX,75402
PO Box 1465,,Gun Barrel City,US,straydogshelter@gmail.com,TX299,32.3097,-96.1152,Straydog Inc.,903-479-3497,TX,75147
PO Box 124,,Hale Center,US,aatwood@hcisdowls.net,TX2156,34.0646,-101.845,PAW Pals of Hale Center,(806) 367-0695,TX,79041
,,Haltom City,US,Hello@h3rdfw.org,TX1846,32.8672,-97.2494,H3R,,TX,76148
5312 Midway Road,,Haltom City,US,jhoward@haltomcitytx.com,TX410,32.8063,-97.2717,Haltom City Animal Shelter,817-759-2124,TX,76117
,,Haltom City,US,maricatsrescue@gmail.com,TX1899,32.8663,-97.2894,Maricats Rescue/Paw Pals of Haltom City,8172019012,TX,76137
PO Box 2706,,Harker Heights,US,adopt@schoolofwags.org,TX1805,31.117,-97.7275,School of Wags,(254) 681-4090,TX,76548
1106 Markowsky Ave,,Harlingen,US,harlingenhumanesociety@yahoo.com,TX1317,26.1914,-97.6872,Humane Society of Harlingen,(956) 425-7297,TX,78550
,,Haslet,US,safehavencatsanctuary@gmail.com,TX2189,32.9604,-97.3674,Safe Haven Cat Sanctuary,817-454-8799,TX,76052
,,Haslet,US,wamplers@hotmail.com,TX1408,32.9604,-97.3674,Pet Connectors,817-528-8600,TX,76052
1309 Market,,Hearne,US,cnierdieck@yahoo.com,TX1250,30.7067,-96.5631,Handfuls on Purpose / HOPE,(281) 387-6532,TX,77859
402 3rd Street,,Hearne,US,seachicken1954@yahoo.com,TX1827,30.7067,-96.5631,Hearne Animal Control,(979) 279-6388,TX,77859
P.O.Box 908,,Helotes,US,ed@hhsanimals.org,TX1197,29.5863,-98.6977,Helotes Humane Society,210-422-6242,TX,78023
,,Helotes,US,info@forpawssakerescue.org,TX2207,29.5863,-98.6977,For Paws Sake Rescue,(361) 244-8851,TX,78023
,,Helotes,US,sagdinfo@gmail.com,TX1207,29.5863,-98.6977,San Antonio Great Dane Rescue,,TX,78023
685 Mann St,,Hemphill,US,barkingmadanimalrescue@gmail.com,TX2235,31.36,-93.6886,Barking Mad Animal Rescue,(409) 457-6495,TX,75948
,,Hempstead,US,alfredk9rr@gmail.com,TX1910,30.0929,-96.0789,Humane Animal Rescue Project,(979) 921-0457,TX,77445
,,Hempstead,US,charliboyd03@aol.com,TX2131,30.0929,-96.0789,Charlie's Angels Dog Rescue,,TX,77445
P.O. BOX 759,,Hempstead,US,nancy@4pawsfarm.org,TX1753,30.0929,-96.0789,"4 Paws Farm, Inc",(979) 399-4198,TX,77445
P.O. Box 274,503 N. Carroll Street,Henrietta,US,,TX277,33.8165,-98.1924,"Clay County Animal Shelter, Inc.",(940) 538-6757,TX,76365
,,Hereford,US,deafsmithhumanesociety@yahoo.com,TX1608,34.8196,-102.4059,The Humane Society of Deaf Smith County,(806) 363-6499,TX,79045
970 Main St,,Hickory Creek,US,alyssa.benner@hickorycreek-tx.gov,TX398,33.1124,-97.0205,Town of Hickory Creek Animal Adoption Center,940 465-7444,TX,75065
2810 Justin Road,,Highland Village,US,pets@highlandvillage.org,TX530,33.0417,-96.9829,City of Highland Village Animal Shelter,(469) 444-0915,TX,75077
,,Highlands,US,medleyaliesha@yahoo.com,TX2045,29.818,-95.0583,Houston Huts 4 Mutts,,TX,77562
"P.O. Box 1533, Hill County Paw Pals","1500 South Abbott Avenue, Hillsboro, TX  76645",Hillsboro,US,hcpawpals@yahoo.com,TX784,32.006,-97.1193,Hill County Paw Pals,254-580-0679,TX,76645
P. O. Box 213,,Hitchcock,US,office@habitatforhorses.org,TX372,29.3443,-95.0067,Habitat for Horses,(409) 935-0277,TX,77563
PO Box 8418,,Horseshoe Bay,US,hillcountrycats@yahoo.com,TX1007,30.5927,-98.3475,Hill Country Cat Control,830-220-0766,TX,78657
PO Box 36128,,Houston,US,adopt@houstonpetsalive.org,TX1950,29.7631,-95.3631,Houston Pets Alive!,832-786-9310,TX,77236
,,Houston,US,adopt@inthenameofzoey.org,TX1956,29.9867,-95.5206,"In the name of ZOEY - Houston, TX",(832) 533-6049,TX,77069
1802 Wentworth St,,Houston,US,adoptbluesangels@gmail.com,TX1869,29.7284,-95.3644,Blue's Angels,,TX,77004
,,Houston,US,adoption@pupsquad.org,TX1261,29.7722,-95.4003,Pup Squad Animal Rescue,,TX,77007
,,Houston,US,adoptioninquiries@yahoogroups.com,TX169,29.7631,-95.3631,Lone Star Shih Tzu and Lhasa Apso Rescue,,TX,77208
107 E. 22nd Street,,Houston,US,adoptionmanager@adoptfriends4life.org,TX1047,29.7984,-95.411,Friends For Life Animal Shelter & Sanctuary,713-863-9835,TX,77008
,,Houston,US,adoptions@droh.org,TX491,29.75,-95.3466,Dachshund Rescue of Houston,,TX,77003
14700 Almeda Road,PO Box 450528,Houston,US,adoptions@houstonhumane.org,TX219,29.6007,-95.4591,Houston Humane Society,713-433-6421,TX,77053
900 Portway Drive,,Houston,US,adoptions@houstonspca.org,TX403,29.7692,-95.5205,Houston SPCA,,TX,77024
P.O. Box 940877,,Houston,US,adoptions@lovingarmspetplacement.com,TX1393,29.7726,-95.6966,Loving Arms Pet Placement,(713) 899-9672,TX,77094
,,Houston,US,adoptions@westburycare.org,TX1981,29.6548,-95.4806,Westbury CARE,,TX,77035
3200 Carr Street (Front Entrance),2700 Evella Street (Rear Entrance),Houston,US,BARCAdoptions@houstontx.gov,TX973,29.7929,-95.3323,"City of Houston, BARC Animal Shelter & Adoptions",713-229-7331,TX,77026
448 West 15th Street,Box 553,Houston,US,chowmail.hccc@gmail.com,TX1866,29.7984,-95.411,Houston Chow Chow Connection,,TX,77008
3830 Greenhouse Road,,Houston,US,Clinic@specialpalsshelter.org,TX115,29.8422,-95.6607,Special Pals Animal Shelter,281-579-PETS,TX,77084
P.O. Box 591819,,Houston,US,Contact-Us@DreamDachs.org,TX1780,29.7631,-95.3631,"DREAM Dachshund Rescue, Education & Adoption Mission",,TX,77259
,,Houston,US,contact@hadr.org,TX397,29.6861,-95.2541,Houston Area Doberman Rescue,832-598-4237,TX,77017
,,Houston,US,doggydarlings12@gmail.com,TX2276,29.7499,-95.6026,Doggy Darlings,,TX,77077
PO Box 70363,,Houston,US,felinecaninehouston@hotmail.com,TX1486,29.7722,-95.4003,Feline/Canine Friends of Houston,,TX,77007
P.O. Box 8243,,Houston,US,foster@rescuereinvented.org,TX2117,29.7631,-95.3631,Rescue Reinvented,,TX,77292
,,Houston,US,glassslipperrescue@gmail.com,TX2173,29.7931,-95.3688,Glass Slipper Animal Rescue,2813189092,TX,77009
PETCO,5450 WESLAYAN,Houston,US,goodmewsrescue@gmail.com,TX1616,29.6891,-95.5099,Good Mews Rescue,,TX,77074
P.O. Box 42170,,Houston,US,gulfcoastcsr@hotmail.com,TX1459,29.7631,-95.3631,Gulf Coast Cocker Spaniel Rescue,,TX,77242
,,Houston,US,happilyeverafter4dogs@yahoo.com,TX1005,29.5697,-95.129,Happily Ever After Dog Rescue,,TX,77062
,,Houston,US,hhfrescue@gmail.com,TX2153,29.8916,-95.6416,"Honoring Hope and Faith Rescue, Inc.",866.774.4673,TX,77095
,,Houston,US,hieusarchangels@gmail.com,TX2225,29.7486,-95.469,Hieu's Archangels,281-509-1916,TX,77056
PO Box 273331,,Houston,US,hope@homelesspets.net,TX170,29.7631,-95.3631,HOPE (Homeless & Orphaned Pets Endeavor),(713) 622-4673,TX,77277
P.O.BOX 526,,Houston,US,houcollierescue@yahoo.com,TX197,29.6706,-95.5903,Houston Collie Rescue,281-564-6852 Collie line,TX,77099
,,Houston,US,houston_eskie_resq@yahoo.com,TX439,29.7459,-95.5601,Houston Eskie Rescue,,TX,77042
,,Houston,US,Houstonmpn@gmail.com,TX2255,29.8422,-95.6607,Houston Mini Pig Network ,(832) 738-2201,TX,77084
,,Houston,US,houstonstreetdogs@gmail.com,TX1727,29.7733,-95.6027,Street Dogs Houston,,TX,77079
P. O. Box 273027,,Houston,US,hppl@hppl.org,TX154,29.7631,-95.3631,Homeless Pet Placement League,(713) 862-7387,TX,77277
P. O. Box 62736,,Houston,US,info@aarfhouston.org,TX1359,29.7631,-95.3631,Adopt A Rescued Friend,832-539-4004,TX,77205
,,Houston,US,info@adorehouston.org,TX1713,29.7722,-95.4003,ADORE Houston,,TX,77007
PO Box 924331,,Houston,US,info@animaljusticeleague.org,TX2083,29.7631,-95.3631,Animal Justice League,,TX,77292
P.O. Box  130244,,Houston,US,info@bbrtx.org,TX1051,29.7631,-95.3631,Basset Buddies Rescue of Texas,(281)-657-7347,TX,77219
,,Houston,US,info@bravebullyrescue.org,TX1931,29.7974,-95.4965,Brave Bully Rescue,,TX,77055
PO Box 131894,,Houston,US,info@bunnybuddies.org,TX826,29.7631,-95.3631,Bunny Buddies,,TX,77248
,,Houston,US,info@chinesecrestedrescue.org,TX1856,29.802,-95.5634,Tender Loving Crested Rescue,,TX,77043
PO Box 610150,,Houston,US,info@ghgsdr.org,TX1153,29.7726,-95.6966,Greater Houston German Shepherd Dog Rescue,281-506-0400,TX,77094
,,Houston,US,info@gprescuesociety.org,TX920,29.7722,-95.4003,Great Pyrenees Rescue Society,Please email! ,TX,77007
PO Box 541712,,Houston,US,info@houstonboxerrescue.org,TX1219,29.7631,-95.3631,Houston Boxer Rescue,832-582-2166,TX,77254
,,Houston,US,info@joyrides.org,TX2151,29.7179,-95.4272,Joyrides Rescue,,TX,77005
"945 McKinney Street, No. 424",,Houston,US,info@redcollar.org,TX1086,29.7547,-95.3675,Red Collar Rescue,,TX,77002
16516 El Camino Real #402,,Houston,US,info@saveadane.org,TX1290,29.5697,-95.129,Great Dane Rescue of Southeast Texas,,TX,77062
"1302 Waugh Drive, #245",,Houston,US,info@scoutshonor.org,TX946,29.7524,-95.4017,Scouts Honor Rescue Inc.,,TX,77019
,,Houston,US,info@wagsfundrescue.com,TX2204,29.6999,-95.5901,WAGS Fund,,TX,77072
,,Houston,US,infoerescuehouston@gmail.com,TX778,29.6999,-95.5901,E-Rescue-Houston Inc.,,TX,77072
,,Houston,US,jevans-adoptions@usa.net,TX1109,29.663,-95.2843,Street Dog Rescue,,TX,77061
,,Houston,US,judijfett@aol.com,TX354,29.7692,-95.5205,Cocker Spaniel Rescue of East Texas - Houston,7132081314,TX,77024
,,Houston,US,juliekagel@gmail.com,TX1884,29.7004,-95.5347,At Home Houston Border Collie Rescue,832-633-1591,TX,77036
926 Kenforest Dr.,,Houston,US,jurassicbarkrescue@yahoo.com,TX1464,29.6548,-95.4806,Jurassic Bark Rescue,832-243-6090 new number ***,TX,77035
,,Houston,US,karoline.carlson@gmail.com,TX1775,29.8916,-95.6416,Freedom Street Rescue,,TX,77095
,,Houston,US,kathy@houstonshaggydogrescue.org,TX1257,29.743,-95.3902,Shaggy Dog Rescue,,TX,77006
,,Houston,US,marie3ms@gmail.com,TX1564,29.746,-95.4891,Crystal's Cats & Dogs Rescue,,TX,77057
5722 Fairmont Parkway Pasadena Tx 77505,,Houston,US,missionforpaws@att.net,TX2165,29.5697,-95.129,Mission for Paws,,TX,77062
12723 Stillington Drive,,Houston,US,mkhendricks1@comcast.net,TX1176,29.7829,-95.1848,Cats for Life Adoptions,713-453-8621,TX,77015
,,Houston,US,nbgrtexas@yahoo.com,TX1278,29.7692,-95.5205,"National Brussels Griffon Rescue, Inc.",,TX,77024
,,Houston,US,newliferescueinc@yahoo.com,TX1985,29.6242,-95.2633,"New Life Rescue, Inc.",,TX,77075
P.O. Box 541286,,Houston,US,nnaira12@sbcglobal.net,TX379,29.7631,-95.3631,Lone Star Boxer Rescue,713-464-1381,TX,77254
,,Houston,US,ohthfilm@gmail.com,TX1934,29.743,-95.3902,"OHTH, Inc.",,TX,77006
1215 W. 19th Street,(in between E. TC Jester Blvd. and N. Durham),Houston,US,petfinder@k-9angelsrescue.org,TX1629,29.743,-95.3902,K-9 Angels Rescue,,TX,77006
,,Houston,US,petfinderLAR@gmail.com,TX2210,29.743,-95.3902,Love and Rescue,,TX,77006
,,Houston,US,PetRescueTeam.tx@gmail.com,TX2065,29.734,-95.5197,Pet Rescue Team,,TX,77063
,,Houston,US,pjsplacetx@gmail.com,TX1826,29.9471,-95.3416,PJs Place Animal Rescue,,TX,77032
13302 Schroeder Road,,Houston,US,PRHInfo1@gmail.com,TX734,29.9792,-95.5754,Poodle Rescue of Houston,(281) 477-3297,TX,77070
PO Box 35072,,Houston,US,reh_pinscher@yahoo.com,TX1773,29.7631,-95.3631,Miniature Pinscher Rescue Houston,,TX,77235
Administrative Office,"6711 Stella Link Rd., Suite 344",Houston,US,rescue@idogrescue.com,TX1224,29.7179,-95.4272,"IDOG Rescue, Inc.",,TX,77005
2618 Newman St.,,Houston,US,SaveACat@comcast.net,TX1447,29.7359,-95.4083,Save A Purrfect Cat Rescue,(832) 930-1228,TX,77098
,,Houston,US,saveahart@gmail.com,TX2061,29.723,-95.6322,"Homeless Angels Rescue Team, Houston, Texas",,TX,77082
,,Houston,US,sharpeirescue@prodigy.net,TX498,29.6891,-95.5099,North American Shar-Pei Rescue (NASPR),,TX,77074
,,Houston,US,southsidestreetdogs@gmail.com,TX1804,29.7692,-95.5205,South Side Street Dogs,,TX,77024
,,Houston,US,tamr@texalmal.org,TX552,29.802,-95.5634,Texas Alaskan Malamute Rescue,,TX,77043
,,Houston,US,tauna@barriodogs.org,TX1462,29.7631,-95.3631,Barrio Dogs of Houston,000-00-0000,TX,77223
612 Canino Rd,,Houston,US,webmaster@countypets.com,TX424,29.8583,-95.3837,Harris County Public Health & Environmental Services Veterinary Public Health,(281) 999-3191,TX,77076
,,Houston,US,Westhoustonanimalrescue@gmail.com,TX2014,29.7733,-95.6027,West Houston Animal Rescue,,TX,77079
,,Humble,US,bffurever@yahoo.com,TX1156,30.0052,-95.2832,Best Friends FurEver,,TX,77338
7131 Sanders Hill Ln,,Humble,US,fallcreekfopaws@gmail.com,TX1983,29.9506,-95.2762,FOPAWS,,TX,77396
,,Humble,US,fpbanimalfoundation@gmail.com,TX1706,30.0041,-95.1749,The Faith Phee & Butterbee Foundation,281-883-7532,TX,77346
,,Humble,US,info@pawsitiveconnectionstx.org,TX2265,30.0041,-95.1749,PAWsitive Connections TX,(860) 830-7849,TX,77346
"P.O. Box 600, Huffman, TX 77336",,Humble,US,lmnfelinerescue@hotmail.com,TX1279,30.0041,-95.1749,LMN Feline Rescue,,TX,77346
,,Humble,US,wingsforpaws@gmail.com,TX1920,29.9506,-95.2762,Angels Four Paws,832-659-2576,TX,77396
891 Cannon Dr.,,Hurst,US,Afrandsen@hursttx.gov,TX320,32.8592,-97.1759,City of Hurst Animal Services,817-788-7216,TX,76054
,,Hurst,US,info@savetheboxers.com,TX663,32.8592,-97.1759,Legacy Boxer Rescue,877-526-9377,TX,76054
P.O. Box 432,,Hurst,US,info@texasadopts.org,TX1716,32.821,-97.1809,Lone Star Kitties,(817) 876-7476,TX,76053
4140 Valley View Lane,,Irving,US,adoptapet@cityofirving.org,TX225,32.8665,-96.9847,Irving Animal Services - City of Irving Texas,972-721-2256,TX,75038
,,Irving,US,dfwpbr@gmail.com,TX990,32.8254,-96.961,DFW Purebred Rescue,,TX,75061
PO Box 143522,,Irving,US,info@arottierescue.com,TX2221,32.8139,-96.9486,"A Rottie Rescue, Inc.",2146019255,TX,75014
,,Irving,US,PAWSforIrvingAnimalsLLC@gmail.com,TX1944,32.8763,-96.937,PAWS for Irving Animals,817-380-8142,TX,75039
4140 Valley View Lane,,Irving,US,sarah@dfwhumane.com,TX112,32.8665,-96.9847,DFW Humane Society,972-721-7788,TX,75038
12801 S. IH 35,PO BOX 394,Jarrell,US,midnightsjourney@aol.com,TX1875,30.759,-97.6004,"Midnight's Journey, Inc.",(512) 876-7081,TX,76537
PO Box 1104,,Jasper,US,contact@jlahs.org,TX748,30.9169,-93.9983,Jasper Lakes Area Humane Society,409-381-8488,TX,75951
P.O. Box 505,1300 North Street,Jefferson,US,weddcs@aol.com,TX1420,32.7692,-94.3466,Humane Society of Marion County,(903) 601-2174,TX,75657
PO Box 443,,Judson,US,info@furreverpetsrescue.org,TX2041,32.5825,-94.7533,Furr Ever Pets Rescue,,TX,75660
,,Junction,US,deenab67@yahoo.com,TX2174,30.4901,-99.7714,Sam Coffey Animal Rescue Friends,8304597581,TX,76849
1170 Dove Hill Rd,,Justin,US,Inquire@Apollosupportandrescue.org,TX1660,33.0713,-97.3006,Apollo Support & Rescue,,TX,76247
,,Justin,US,justinanimalalliance@yahoo.com,TX1514,33.0713,-97.3006,The Justin Animal Alliance,(940) 343-7848,TX,76247
,,Katy,US,Pam@shortmugsrescuesquad.org,TX1584,29.7621,-95.8135,Short Mugs Rescue Squad,,TX,77494
MAILING ADDRESS ONLY: 6725 S Fry Road,Suite 700-297,Katy,US,rescueforlife@hotmail.com,TX1913,29.7621,-95.8135,Almost Home Pet Rescue,,TX,77494
P O Box 6575,,Katy,US,staar_pals@yahoo.com,TX06,29.7856,-95.8242,South Texas Animal Adoption Resource,281-392-0927,TX,77491
P.O Box 531,,Katy,US,valspalsgsdr@yahoo.com,TX1972,29.7678,-95.7437,Val's Pals GSD & Large Paw Rescue,,TX,77450
3330 N. Galloway Ave #304-86 PMB,,Kaufman,US,darbyspalsrescue@gmail.com,TX1303,32.5815,-96.3041,"Darby's Pals Rescue, Inc.",469-595-6128,TX,75142
200 Pioneer Drive,,Keene,US,adoptapet@keenepd.org,TX709,32.3955,-97.3206,Keene Animal Shelter,(817) 933-1838,TX,76059
,,Keller,US,adopt@littleorphanangels.org,TX188,32.9152,-97.2545,Little Orphan Angels Animal Welfare Agency,emails only please!,TX,76248
"P.O. Box 2602, Keller, TX  76244",dfwgermanshepherdrescue.org,Keller,US,adoptions@dfwgermanshepherdrescue.org,TX1667,32.9344,-97.2514,DFW German Shepherd Rescue,,TX,76244
P.O. Box 1323,,Keller,US,animaladvocatesofnorthtexas@ymail.com,TX1335,32.9344,-97.2514,Animal Advocates of North Texas,,TX,76244
,,Keller,US,maggies_angels@yahoo.com,TX1714,32.9344,-97.2514,Maggie's Angels,(817) 897-1382,TX,76244
,,Kemp,US,goodtimesbullyrescue@yahoo.com,TX2085,32.4301,-96.2136,Good Times Bully Rescue,,TX,75143
P.O. Box 128,105 S. Sunset Strip St,Kenedy,US,info@karnescountyhumane.org,TX2067,28.8144,-97.8489,Karnes County Humane Organization,830-583-0660,TX,78119
P.O. Box 472,,Kennedale,US,newhopecrs@gmail.com,TX2086,32.6517,-97.2171,New Hope Cat Rescue & Sanctuary,817-366-6191,TX,76060
515 Spur 100,,Kerrville,US,freemanfritts@stx.rr.com,TX1030,30.0443,-99.154,Animal Welfare Society of Kerr Co/Freeman Fritts,830-257-4144,TX,78028
,,Kilgore,US,darcy0325@gmail.com,TX896,32.4008,-94.863,Got Paws?,903-522-9035,TX,75662
PO Box 175,,Killeen,US,adopt@Pawshumanesociety.org,TX1785,31.1168,-97.7262,PAWS Humane Society,"(512)540-4010 - Please text or leave a voicemail, checked daily.",TX,76540
3118 Commerce,,Killeen,US,animal@killeentexas.gov,TX1249,31.0989,-97.6772,Killeen Animal Services,254-526-4455,TX,76543
5501 Clear Creek Rd,,Killeen,US,info@texashumaneheroes.org,TX330,31.1168,-97.7262,Texas Humane Heroes -- No Kill Animal Adoption Centers,512-260-3602,TX,76549
,,Kingwood,US,gulfcoastbtrescue@gmail.com,TX1779,30.056,-95.1718,Texas Gulf Coast Boston Terrier Rescue,,TX,77345
,,Kingwood,US,L4912@aol.com,TX1445,30.056,-95.1718,ADAPT- A Doberman Adoption Placement Team,(281) 361-8797,TX,77345
,,Kingwood,US,mastiffsue1@gmail.com,TX609,30.0549,-95.2126,Mooch's Mastiff Rescue,,TX,77339
1442 KINGWOOD DR PMB 73,,Kingwood,US,skipandsusan@msn.com,TX452,30.0549,-95.2126,K-9 Corral,281-354-9546,TX,77339
,,Kingwood,US,TwylasFriends@yahoo.com,TX205,30.0549,-95.2126,Twyla's Friends,(832) 488-7937,TX,77339
P.O. Box 5266,,Kingwood,US,vap_shelter@yahoo.com,TX142,29.9986,-95.2619,"Volunteers For Animal Protection, Inc.",281-358-9818,TX,77325
,,Kirby,US,kirbybexar@gmail.com,TX1951,29.4481,-98.4016,Kirby-Bexar Animal Facility,210-214-6919,TX,78219
,,Kyle,US,dixie@flash.net,TX263,30.0048,-97.8389,Corgidane Rescue,"512 262 0297, (210) 744-3373",TX,78640
500 FM 150 East,,Kyle,US,info@pawsshelter.org,TX140,30.0048,-97.8389,PAWS Shelter and Humane Society,(512)268-1611,TX,78640
20803 FM 1431,PO Box 4100,Lago Vista,US,info@lifelongfriends.org,TX229,30.4472,-97.9835,Lifelong Friends Pet Adoptions,(512) 267-6876,TX,78645
687 North Lakeview - shelter location,,Lake Dallas,US,jperalta@lakedallaspd.org,TX353,33.1124,-97.0205,Lake Dallas Animal Shelter,(940) 497-7090,TX,75065
141 Canna Lane,,Lake Jackson,US,spcabcpethelp2020@gmail.com,TX571,29.0468,-95.4466,SPCA of Brazoria County,"979-285-2340, x100",TX,77566
,,Lakeway,US,365petconnection@gmail.com,TX1900,30.3783,-97.9456,365 Pet Connection,,TX,78734
301 College St,,Lampasas,US,lampasasanimalshelter@gmail.com,TX1387,31.0655,-98.1822,Lampasas Animal Shelter,512-556-8586,TX,76550
690 E. Main St.,,Lancaster,US,kcorrao@lancaster-tx.com,TX613,32.5922,-96.7724,City of Lancaster Animal Shelter,972-218-1210,TX,75146
821 North Kansas Street,(Off FM 518 - east of Hwy 3),League City,US,animalcontrol@leaguecity.com,TX405,29.505,-95.0923,League City Animal Shelter,281-554-1377,TX,77573
,,League City,US,monica@friendsofleaguecityanimalshelter.com,TX1363,29.505,-95.0923,Friends of League City Animal Shelter,832 536 3388,TX,77573
PO Box 1216,,League City,US,pets2adopt@yahoo.com,TX258,29.5072,-95.0947,Second Chance Pets,,TX,77574
10930 E. Crystal Falls Parkway,,Leander,US,info@texashumaneheroes.org,TX136,30.5453,-97.886,Texas Humane Heroes -- No Kill Animal Adoption Centers,(512) 260-3602,TX,78641
109 Commerce Drive,,Levelland,US,john.dupre@valornet.com,TX1604,33.5783,-102.3599,"Levelland, Texas Animal Shelter",(806) 894-2985,TX,79336
995 E. Valley Ridge BLVD,PO Box 299002,Lewisville,US,colanservices@yahoo.com,TX470,33.0461,-96.9939,City of Lewisville Animal Shelter,972-219-3478,TX,75029
4854 Highway 121,,Lewisville,US,nhowery@spca.org,TX2025,33.0932,-96.8841,SPCA of Texas - Lewisville,214-742-7722,TX,75056
,,Lewisville,US,nick@starspets.com,TX178,33.0478,-97.0318,Save The Animals Rescue Society STARS Inc,(972) 459-9181,TX,75067
"1565 W. Main St., Suite 208246",,Lewisville,US,office@hsltexas.org,TX138,33.0478,-97.0318,Humane Society of Lewisville,(972) 353-4840,TX,75067
,,Lewisville,US,theguineapigrescue@yahoo.com,TX466,33.0478,-97.0318,Texas Rustlers Guinea Pig Rescue,(972) 219-1963,TX,75067
,,Liberty Hill,US,find.love.train@gmail.com,TX2069,30.6629,-97.9918,Find.Love.Train,5128432077,TX,78642
,,Little Elm,US,savelittledogs@gmail.com,TX2194,33.161,-96.9692,"Little Dog Rescue of North Texas, Inc.",972-951-3647,TX,75068
P.O. Box 307,,Liverpool,US,julia@brazoriapaws.org,TX719,29.2463,-95.2327,N.A.B.S. (Noah's Ark Bayou Sanctuary Animal Rescue),(281) 330-5238,TX,77577
,,Liverpool,US,Rescue@PawPrintRescue.Org,TX2271,29.2463,-95.2327,PawPrint Cottage Rescue,,TX,77577
802 S. Houston,P.O. Box 1403,Livingston,US,spcaofpolkcounty@spcaofpolkcounty.org,TX411,30.715,-94.9412,SPCA. of Polk County,936-327-7722,TX,77351
1400 Industrial Blvd.,,Lockhart,US,info@pawsinprison.com,TX1289,29.881,-97.6754,Paws in Prison,830-305-2629,TX,78644
PO Box 97,,Lone Oak,US,huntcountypetsalive@gmail.com,TX2110,32.932,-95.9541,Hunt County Pets Alive,903-600-0738,TX,75453
,,Lone Oak,US,sadies.place.tx@gmail.com,TX1797,32.932,-95.9541,Sadie's Place Animal Rescue and Adoptions,903-450-3969,TX,75453
,,Longview,US,allgooddogscea@gmail.com,TX2272,32.5418,-94.7821,All Good Dogs Education,,TX,75605
,,Longview,US,belindawiggins@att.net,TX440,32.5418,-94.7821,Partnership For Pets of East Texas,(903) 235-6101,TX,75605
,,Longview,US,lifesaversapps@outlook.com,TX2228,32.5006,-94.7403,Lifesavers Corp,(903) 452-0526,TX,75608
PO Box 5153,,Longview,US,regard4life.info@gmail.com,TX1879,32.5006,-94.7403,Regard4Life,,TX,75606
P.O. Box 6722,,Longview,US,thecatsmeowrescue@yahoo.com,TX1807,32.5006,-94.7403,The Cat's Meow Rescue,,TX,75608
,,Longview,US,tmoore.eor@gmail.com,TX1577,32.4736,-94.7233,Texas Star Rescue,(903) 660-2035,TX,75602
,,Lorena,US,misfitsrescue@yahoo.com,TX2219,31.3983,-97.2287,Community Misfits Animal Rescue,,TX,76655
"8901 Highway 87, Building 119",,Lubbock,US,adoptions.spspca@gmail.com,TX1696,33.5669,-101.94,South Plains SPCA,,TX,79407
,,Lubbock,US,doinpeachy@gmail.com,TX1630,33.573,-101.8612,Fujimoto's Friends,,TX,79411
,,Lubbock,US,hswt.org@gmail.com,TX825,33.5695,-101.8882,Humane Society of West Texas,,TX,79410
5109 82nd Street #7,PMB 199,Lubbock,US,info@savinggracepitbullrescue.org,TX1297,33.5227,-101.9205,Saving Grace Pit Bull Rescue,8067905640,TX,79424
3240 Nightingale Road,,Lubbock,US,lapis3240@yahoo.com,TX1300,33.5669,-101.94,Morris Safe House Foundation,806-239-0156,TX,79407
P.O. Box 98045,,Lubbock,US,lelandsheart@hotmail.com,TX291,33.5778,-101.8547,LeLands Heart Sanctuary,806-885-1990,TX,79499
,,Lubbock,US,whitekissesgdr@gmail.com,TX2000,33.5778,-101.8547,White Kisses Great Dane Rescue,,TX,79464
,,Lubbock ,US,JHarvell@mail.ci.lubbock.tx.us,TX2287,33.5546,-101.8298,Lubbock Animal Services ,,TX,79404
1901 Hill Street,,Lufkin,US,aramsey@cityoflufkin.com,TX346,31.3253,-94.724,Kurth Memorial Animal Services & Adoption Center,936-633-0218,TX,75901
P.O. Box 614,,Lufkin,US,etxsalvationanimalrescue@gmail.com,TX2213,31.3381,-94.7289,Salvation Animal Rescue,,TX,75902
1102 N. John Redditt Dr.,(Loop 287 West),Lufkin,US,hsac@consolidated.net,TX729,31.3357,-94.7472,Humane Society of Angelina County,936-639-1880,TX,75904
,,Lufkin,US,wendysmisfits@gmail.com,TX2256,31.3381,-94.7289,Wendy's Misfits Animal Rescue,(936) 707-2568,TX,75903
1800 E Pierce St.,,Luling,US,adoptatlaws@gmail.com,TX1452,29.6822,-97.6483,Luling Animal Welfare Society (L.A.W.S.),(512) 749-5643,TX,78648
17971 W. FM 2790 S.,P.O. Box 743,Lytle,US,bettykroeger@sbcglobal.net,TX1318,29.2451,-98.7948,City Of Lytle Animal Control,(830) 709-3832,TX,78052
P.O. Box 1303,,Mabank,US,HappyTailsofGBC@yahoo.com,TX1806,32.3097,-96.1152,Adopt a Happy Tail,903-275-5990,TX,75147
,,Madisonville,US,ellie.haynes@madisonvillepd.net,TX2251,30.9517,-95.9173,Madisonville Animal Control,(936) 348-3317,TX,77864
PO Box 1385,,Madisonville,US,rufusrefuge@gmail.com,TX2203,30.9517,-95.9173,Rufus Refuge,(936) 581-1310,TX,77864
,,Magnolia,US,3lanimalrescue@gmail.com,TX2277,30.1786,-95.698,3L Animal Rescue,,TX,77355
32632 Wright Rd,,Magnolia,US,info@aartexas.org,TX525,30.1786,-95.698,Abandoned Animal Rescue,(281) 789-4142,TX,77355
,,Magnolia,US,jluvabull@aol.com,TX1293,30.1786,-95.698,"English Bulldog Rescue Network of Houston, TX",,TX,77355
,,Magnolia,US,missmanatee@hotmail.com,TX404,30.211,-95.7487,Saint Bernard Rescue Foundation Inc. (TX Chapter),281-259-6267,TX,77354
,,Magnolia,US,Rebecca.Gribben@gmail.com,TX1397,30.1786,-95.698,Lucky Kitty Crew,,TX,77355
,,Malakoff,US,twistedbranchaussies@gmail.com,TX1620,32.1771,-96.0214,Twisted Branch Aussie Ranch,Email only please.  ,TX,75148
,,Manchaca,US,Adoptions@austindog.org,TX953,30.1344,-97.8521,Austin Dog Rescue,,TX,78652
,,Manchaca,US,,TX2172,30.1344,-97.8521,Orphan Cat Colony,512-947-0966,TX,78652
407 Industrial Blvd,,Mansfield,US,animalcontrol@mansfield-tx.gov,TX237,32.5805,-97.1349,Mansfield Animal Care and Control,817-276-4799,TX,76063
P.O. Box 874,,Mansfield,US,avertingcatastrophe@gmail.com,TX1997,32.5805,-97.1349,"Averting CAT-astrophe, Inc",,TX,76063
,,Mansfield,US,DFWBeagleBuddies@gmail.com,TX1589,32.5805,-97.1349,DFW Beagle Buddies,,TX,76063
PO Box 1006,,Mansfield,US,midcitieshumanesociety@yahoo.com,TX358,32.5805,-97.1349,Mid Cities Humane Society,817 368 5094,TX,76063
P. O. Box 953,,Manvel,US,Rescued_Rotts_By_Scooby_Jack@yahoo.com,TX2155,29.4766,-95.3547,Rescued Rotts by Scooby-Jack,,TX,77578
,,Marble Falls,US,highlandlakesspca@gmail.com,TX247,30.5807,-98.3321,Highland Lakes SPCA,(830) 693-0569,TX,78654
,,Marble Falls,US,livingloveanimalrescue@gmail.com,TX1999,30.5807,-98.3321,Living Love Animal Rescue,,TX,78654
1901 Jefferson Avenue,The Pet Place,Marshall,US,hshcpaws@cobridge.tv,TX264,32.5397,-94.3651,Humane Society of Harrison County,903 938-7297,TX,75670
PO Box 755,,Mason,US,adoptions@secondchancemason.com,TX1689,30.7519,-99.2333,Second Chance-Mason Animal Rescue,325-347-6929,TX,76856
,,Mcallen,US,ddadoption@gmail.com,TX1177,26.251,-98.2264,Dr. Dolittle's Rescue Ranch,956-279-1044,TX,78504
P.O.Box 1504,,McKinney,US,adoption@northtexascatrescue.com,TX1173,33.1798,-96.6106,North Texas Cat Rescue,214-454-9395,TX,75069
4750 Community Ave.,Collin County Justice Complex,McKinney,US,animalshelter@co.collin.tx.us,TX976,33.1956,-96.6765,Collin County Animal Services,972-547-7292,TX,75070
PO Box 163,,McKinney,US,contact@hillcrestanimalrescue.org,TX426,33.1956,-96.6765,"Hillcrest Animal Rescue, Inc.",469 363-6433,TX,75070
,,McKinney,US,contact@LegacyHumaneSociety.org,TX1174,33.1956,-96.6765,Legacy Humane Society,469-609-7387,TX,75070
PO Box 6685,,McKinney,US,ELManimalrescue2@gmail.com,TX2157,33.1956,-96.6765,Every Life Matters Animal Rescue,(469) 702-1356,TX,75070
,,McKinney,US,info@habitat4paws.org,TX1654,33.1972465,-96.6397822,Habitat 4 Paws,,TX,75071
,,McKinney,US,rescue@crossedpawsanimalhaven.org,TX2116,33.1956,-96.6765,Crossed Paws Animal Haven,,TX,75070
,,McKinney,US,shereesdogrescue@gmail.com,TX1277,33.1972465,-96.6397822,Sheree's Dog Rescue,972-658-2487,TX,75071
8411 Stacy Rd,,McKinney,US,spca@spca.org,TX751,33.1956,-96.6765,SPCA of Texas - McKinney,214-742-7722,TX,75070
,,McKinney,US,stcloudsrescue@yahoo.com,TX848,33.0777,-96.7319,St. Clouds Rescue,(972) 679-5319,TX,75025
P O Box 128,,Merit,US,paigesegovia@msn.com,TX1144,33.2167,-96.2872,Lone Star Pyrs and Paws Rescue,214-724-0856,TX,75458
,,Mesquite,US,info_tmar@yahoo.com,TX2148,32.8144,-96.6304,Texas Mini Aussie Rescue,,TX,75150
,,Mesquite,US,purrfectangelsanimalrescue@yahoo.com,TX2073,32.7371,-96.5793,Purrfect Angels Animal Rescue,9728967959,TX,75181
19175 LBJ Freeway,,Mesquite,US,spca@spca.org,TX2027,32.8144,-96.6304,SPCA of Texas - Mesquite,,TX,75150
,,Mesquite,US,,TX2088,32.7371,-96.5793,East Dallas Pet Rescue,(469) 554-6208,TX,75181
1517 Hwy 171 N,P.O. Box 190,Mexia,US,info@larashouseshelter.org,TX1275,31.68,-96.4917,LARAS House,(254) 292-9552,TX,76667
P.O. Box 4553,,Midland,US,animaloutreach@aol.com,TX159,31.9638,-102.0428,Animal Outreach Association,,TX,79706
P.O. Box 62104,,Midland,US,dustbowlanimalrescue@gmail.com,TX1792,31.9972,-102.0775,Dust Bowl Animal Rescue,(432) 638-0368,TX,79711
2701 S. County Road 1206,,Midland,US,info@grandcompanions.org,TX2126,31.9638,-102.0428,Grand Companions Humane Society - Midland,4324263724,TX,79706
4200 N Fairgrounds Rd,,Midland,US,lonestarsanctuary@yahoo.com,TX1626,32.028,-102.0948,Lone Star Sanctuary for Animals,432-683-7387,TX,79705
4206 W. Loop 250 Petsmart,,Midland,US,steg@midlandhumane.com,TX1990,31.9972,-102.0775,Midland Humane Coalition,432-520-3134,TX,79710
1150 N Hwy 67,,Midlothian,US,debbie.lubke@midlothian.tx.us,TX2103,32.4815,-96.986,City of Midlothian Animal Shelter,972-775-7614,TX,76065
,,Midlothian,US,heavenshelpersrescue@gmail.com,TX2142,32.4815,-96.986,Heaven's Helpers Pet Rescue,,TX,76065
,,Mingus,US,Care.animalrescue@yahoo.com,TX1368,32.5445,-98.4219,C.A.R.E. Community Animal Rescue Effort,(254) 631-6937,TX,76463
,,Mission,US,contact@cinderella-pet-rescue.org,TX1280,26.3189,-98.3701,"Cinderella Pet Rescue, Inc.",(956) 391-4399,TX,78574
P.O. Box 5013,,Mission,US,info@forgotten-friends.org,TX1632,26.2145,-98.3114,Forgotten Friends Texas Rescue RGV,956-605-7004,TX,78572
8790 Highway 6,#100,Missouri City,US,mel@peacelovedogs.com,TX2006,29.5697,-95.545,peacelovedogs,Email preferred,TX,77459
1923 Scanlin Road,,Missouri City,US,MoCityAnimalShelterVolunteers@gmail.com,TX1049,29.5961,-95.5169,City of Missouri City Animal Shelter,(281) 403-8707,TX,77489
,,Montgomery,US,asvtexas@gmail.com,TX1701,30.3702,-95.6488,Animal Shelter Volunteers of Texas,,TX,77316
,,Mount Pleasant,US,ratposting@yahoo.com,TX683,33.158,-94.9687,Ratbone Rescues - South Central Region,,TX,75455
,,Nacogdoches,US,feralaristocat@yahoo.com,TX576,31.5972,-94.6715,The OMalley Alley Cat Organization,(936) 556-2754,TX,75964
,,Nacogdoches,US,stfrancisrescuenac@yahoo.com,TX1092,31.5972,-94.6715,"St. Francis Rescue, Nacogdoches, TX",(936) 615-7425,TX,75964
3211 SW Stallings Dr.,,Nacogdoches,US,,TX377,31.5972,-94.6715,Nacogdoches Animal Services and Adoption Center,936-560-5011,TX,75964
18295 Upperbay Road,,Nassau Bay,US,troy.bradfield@nassaubay.com,TX1677,29.5497,-95.097,City of Nassau Bay Animal Control,(832) 574-0877,TX,77058
1607 Nolan Street,,Navasota,US,helpnavasotapets@gmail.com,TX1758,30.3878,-96.0849,Navasota Animal Shelter,936-825-6641,TX,77868
,,Navasota,US,info@fluffysfriends.org,TX1941,30.3878,-96.0849,"Fluffys Friends, Inc.",,TX,77868
,,Nederland,US,rehomegreyhounds@gmail.com,TX1974,29.9722,-93.9982,Everything Grey Greyhound Haven,4097812356,TX,77627
3353 Morningside Drive,,New Braunfels,US,adoption@hsnba.org,TX478,29.7509,-98.1521,Humane Society of New Braunfels Area,(830) 629-5287,TX,78132
,,New Braunfels,US,info@swesr.org,TX1726,29.7509,-98.1521,Southwest English Setter Rescue,214-997-3885,TX,78132
,,New Braunfels,US,TAGAdoptionsTeam@gmail.com ,TX1526,29.7028,-98.1242,Texas Animal Guardians,512-823-0483,TX,78131
710 South Rancho Rd,P.O. Box 175,Nixon,US,nixonpassionforpaws@gmail.com,TX1852,29.2681,-97.7623,Passion for Paws Memorial Animal Shelter,830-534-2256,TX,78140
653 Airport Rd.,,Nocona,US,noconaluckypaws@gmail.com,TX2104,33.7882,-97.7269,Nocona Lucky Paws Animal Shelter,940 867 5015,TX,76255
,,North Richland Hills,US,aussie330@aol.com,TX1573,32.8532,-97.2217,Aussie Rescue & Placement Helpline,,TX,76180
7301 Iron Horse Blvd,,North Richland Hills,US,cmezger@nhtx.com,TX16,32.8532,-97.2217,North Richland Hills Animal Adoption and Rescue Center,817-427-6570,TX,76180
,,North Richland Hills,US,kaleysplace@gmail.com,TX1939,32.8532,-97.2217,Kaleys Place,(682) 233-2026,TX,76180
,,Odessa,US,camorescuetx@gmail.com,TX2004,31.8874,-102.3513,CAMO - Rescue,,TX,79762
,,Odessa,US,cherishedpetsrescue@gmail.com,TX2022,31.8755,-102.4499,Cherished Pets Animal Rescue (CPAR),(432) 258-3581,TX,79764
910 W. 42nd Street,,Odessa,US,,TX606,31.8298,-102.4182,City of Odessa Animal Shelter,432-368-3527,TX,79763
,,Orange,US,pupsinperil@gmail.com,TX1989,30.1273,-93.7586,Pups In Peril,,TX,77632
,,Ovilla,US,LoneStarAussieRescue@gmail.com,TX2239,32.521,-96.8213,Lone Star Aussie Rescue,(972) 619-3390,TX,75154
14380 FM 2853,Suite C,Palacios,US,info@luckystrykesrescue.com,TX2220,28.7081,-96.2158,"Lucky Strykes Dog Rescue, Inc.",(361) 676-9260,TX,77465
335 Armory Road,P.O. Box 63,Palestine,US,achs75801@yahoo.com,TX74,31.9194,-95.6308,"BARC, The Humane Society",903-729-8074,TX,75801
P.O. Box 2095,,Pampa,US,fmcurry@nts-online.net,TX1492,35.5418,-100.9649,Pampa Animal Welfare Society,806 664-1615,TX,79065
237 Spring Valley Rd,,Paradise,US,tirrrescue@gmail.com,TX179,33.0696,-97.7432,Texas Independent Rhodesian Ridgeback Rescue,(817) 454-6023,TX,76073
5150 Burke,,Pasadena,US,adoptions@ci.pasadena.tx.us,TX173,29.6493,-95.1868,Pasadena Animal Shelter & Pet Adoption Center,281-991-0602,TX,77504
,,Pearland,US,CHUNKYTRUNKS@SBCGLOBAL.NET,TX908,29.4127,-95.2461,CTBR,,TX,77511
P.O. Box 3037,,Pearland,US,forgottenpetadvocates@yahoo.com,TX1682,29.5633,-95.2858,The Forgotten Pet Advocates,,TX,77588
P.O. Box 841336,,Pearland,US,info@atdr.org,TX933,29.542,-95.3245,All Texas Dachshund Rescue,,TX,77584
2002 Old Alvin Rd.,Pearland Texas 77581,Pearland,US,pearlandpets@ci.pearland.tx.us,TX152,29.5523,-95.2715,City of Pearland Animal Control,281-652-1970,TX,77581
,,Pearland,US,purrescue@gmail.com,TX2245,29.542,-95.3245,PurRescue,(281) 992-0900,TX,77584
2222 Business Interstate (BI) - 35E,Corner Sutton Rd. & Busn. 81 N.,Pearsall,US,btails@sbcglobal.net,TX226,29.0192,-99.3025,Judy's Ark,830.334.4500,TX,78061
,,Petrolia,US,ilovemutts@aol.com,TX1586,34.0124,-98.2326,Katy's Dog Place,940-636-5628,TX,76377
,,Pflugerville,US,adopt@pflugervillepetsalive.org,TX1837,30.4428,-97.6276,Pflugerville Pets Alive!,,TX,78660
,,Pflugerville,US,centraltexasratrescue@gmail.com,TX1755,30.4428,-97.6276,Central Texas Rat Rescue,2487611722,TX,78660
PO Box 3751,,Pflugerville,US,cuzimatteranimalrescue@gmail.com,TX2128,30.4428,-97.6276,Cuz i Matter Animal Rescue,,TX,78691
,,Pflugerville,US,sarah@texassweetiesdogrescue.org,TX1732,30.4428,-97.6276,Texas Sweeties Dog Rescue,,TX,78691
,,Pilot Point,US,adoptionsmoh@gmail.com,TX1528,33.3828,-96.949,All American Dogs,972-382-3647,TX,76258
,,Pipe Creek,US,adoggie4you@yahoo.com,TX1818,29.6293,-98.9133,A Doggie 4 You,210-385-0465,TX,78063
,,Plano,US,againstalloddsrescue@gmail.com,TX2136,33.0257,-96.7398,Against All Odds- All Breed Rescue,972-612-8937,TX,75075
P. O. Box 867376,,Plano,US,btrescue@texasbostons.com,TX210,33.0197,-96.6986,Boston Terrier Rescue of North Texas,(844) 428-7776,TX,75086
PO Box 262571,,Plano,US,catmatchers@yahoo.com,TX1120,33.0197,-96.6986,Cat Matchers,972-458-7877,TX,75026
4028 Plano Parkway,,Plano,US,debbien@plano.gov,TX01,33.0329,-96.793,Plano Animal Shelter,(972) 769-4360,TX,75093
,,Plano,US,DFWcoordinator@chihuahua-rescue.com,TX209,33.0551,-96.7371,"Chihuahua Rescue & Transport, Inc",,TX,75023
,,Plano,US,gsdresq@gmail.com,TX274,33.0257,-96.7398,Good Shepherd Rescue & Sanctuary of Texas,,TX,75075
3000 Custer Road,Suite 270-156,Plano,US,huskiesandmutts@gmail.com,TX85,33.0932,-96.8841,Adopt a Husky of Dallas Inc.,,TX,75056
,,Plano,US,Info@4paws2love.org,TX2013,33.0777,-96.7319,4Paws2Love,(972)480-3590,TX,75025
MAILING ADDRESS: 2300 McDermott Rd.,Ste 200-258,Plano,US,info@furryfriendsanimalrescue.org,TX1847,33.0777,-96.7319,Furry Friends Animal Rescue,,TX,75025
1700 J Avenue,,Plano,US,info@secondchancespca.org,TX903,33.0283,-96.6752,Second Chance SPCA,972-424-0077,TX,75074
P.O. Box  803001,,Plano,US,LapRescue@gmail.com,TX1617,33.0038,-96.6083,League of Animal Protectors,,TX,75094
P.O. Box 251401,,Plano,US,lswrvolunteers@verizon.net,TX1739,33.0777,-96.7319,Lone Star Westie Rescue,877-561-5922,TX,75025
PO Box 250122,,Plano,US,tailsfromtheheart@gmail.com,TX2108,33.0777,-96.7319,Tails from the Heart Rescue,(214) 497-0446,TX,75025
,,Plano,US,tlcrescuedogs@verizon.net,TX1221,33.0283,-96.6752,Texas Little Cuties (TLC) Rescue,,TX,75074
,,Plano,US,tzuzoorescue@gmail.com,TX1203,33.0329,-96.793,Tzu Zoo Rescue,,TX,75093
,,Point,US,Fixintexas2017@yahoo.com,TX2238,32.9315,-95.8706,FixinTexas Animal Advocates,(972) 351-7261,TX,75472
"PO Box 506, Porter, TX 77365",,Porter,US,info.5thward@gmail.com,TX1673,30.1007,-95.2519,Forgotten Dogs of the 5th Ward Project,,TX,77365
,,Porter,US,info@wagstowhiskerstx.com,TX1494,30.1007,-95.2519,"Wags to Whiskers of Texas, Inc.",832-527-9370,TX,77365
,,Post,US,postarc@yahoo.com,TX1423,33.1904,-101.3801,Post Animal Refuge Center,(806) 781-6766,TX,79356
,,Quinlan,US,allanc214@aol.com,TX938,32.9101,-96.1368,Texas Best Choices Animal Rescue,(214) 535-5230,TX,75474
411 W. Red Oak Road,,Red Oak,US,Aabernathy@redoaktx.org,TX1744,32.521,-96.8213,City of Red Oak Animal Shelter,214-399-7730,TX,75154
945 East Ovilla Road,,Red Oak,US,tgracemitchell@att.net,TX1497,32.521,-96.8213,ChinChildren Chinchilla Rescue,972-617-8864,TX,75154
,,Richardson,US,adopt@dallasstreetdogadvocates.org,TX2254,32.9694,-96.7429,Dallas Street Dog Advocates,,TX,75080
,,Richardson,US,adopt@feralfriends.org,TX381,32.9481,-96.7294,Feral Friends Community Cat Alliance,(972) 671-0429,TX,75083
561 West Campbell Road,Suite 303,Richardson,US,adopt@tmhpr.com,TX1421,32.9694,-96.7429,Take Me Home Pet Rescue,,TX,75080
PO BOX 832012,,Richardson,US,protanimleag@yahoo.com,TX139,32.9481,-96.7294,PAL - Protective Animal League,(972) 881-1981,TX,75083
1330 Columbia Drive,,Richardson,US,,TX428,32.9491,-96.7064,Richardson Animal Shelter,972-744-4480,TX,75081
7049 Baker Blvd,,Richland Hills,US,helpingpawsnt@gmail.com,TX622,32.8079,-97.2224,Richland Hills Animal Services,(817) 616-3769,TX,76118
,,Richmond,US,LuckyPennyRoxRescue@gmail.com,TX1911,29.5836,-95.752,Lucky Penny Rox Rescue - Ft Bend County Tx,,TX,77469
,,Roanoke,US,adopt@classycats.org,TX887,32.9881,-97.2084,Classy Cats Incorporated,http://www.classycats.org ,TX,76262
"1279 FM 2116, Dogtown Ranch",Dogtown Ranch,Rockdale,US,angela@dogtown01.org,TX1662,30.6533,-97.015,"Dogtown Ranch Sanctuary, Rescue & Rehab Center",(512) 446-2534,TX,76567
1825 Airport Road,,Rockwall,US,info@rockwalladoptions.com,TX1382,32.9103,-96.4634,Rockwall Animal Adoption Center,972-771-7750,TX,75087
,,Rockwall,US,info@rockwallpets.com,TX1634,32.9103,-96.4634,Rockwall Pets,972-696-9PET,TX,75087
471 National,,Rockwall,US,ready2rescue@yahoo.com,TX1799,32.922,-96.4575,Ready 2 Rescue,214-681-5978,TX,75032
,,Rosanky,US,bebostons@aol.com,TX208,29.9316,-97.2961,Paws 4 Life,830-540-4004,TX,78953
1210 Blume Rd.,,Rosenberg,US,barbara.vass@fortbendcountytx.gov,TX2018,29.5483,-95.7979,Fort Bend County Animal Services,281-342-1512,TX,77471
P.O. Box 1595,,Rosenberg,US,info@soca-fbc.org,TX2137,29.5483,-95.7979,Saving Our Companion Animals - Fort Bend County,(281) 849-7622,TX,77471
1207 Blume Road,1207 Blume Road,Rosenberg,US,renee.mcanally@rosenbergtx.gov,TX746,29.5483,-95.7979,Rosenberg Animal Control,8325953490,TX,77471
,,Rosharon,US,Adopt3LP@gmail.com,TX2269,29.4339,-95.4469,Three Little Pitties,,TX,77583
,,Rosharon,US,amazinggracepetrescue@yahoo.com,TX835,29.4339,-95.4469,Amazing Grace Pet Rescue,,TX,77583
PO Box 15,,Rosharon,US,info@bluebonnetequine.org,TX847,30.5941,-96.3573,Bluebonnet Equine Humane Society,1-888-542-5163,TX,77844
PO Box 720,,Round Rock,US,feralfriend@austin.rr.com,TX504,30.5154,-97.669,Shadow Cats,email only,TX,78664
PO BOX 758,PO Box 758,Rowlett,US,info@friendsofrowlettanimals.org,TX2040,32.9028,-96.5636,Friends of Rowlett Animals,,TX,75030
4402 Industrial St.,,Rowlett,US,mmartinez@rowlett.com,TX69,32.9027,-96.5494,Rowlett Animal Shelter,972-412-6219,TX,75088
,,Royse City,US,petrescuetexas@gmail.com,TX1814,32.9453,-96.3468,Pet Rescue,,TX,75189
,,Royse City,US,sheilasrescue@gmail.com,TX2202,32.9453,-96.3468,Sheila's Hope Animal Rescue,,TX,75189
,,Sachse,US,thebigfixxrescue@yahoo.com,TX2047,32.973,-96.5905,The Big Fixx Rescue and Education,2143850212,TX,75048
,,Saint Jo,US,esashelter@yahoo.com,TX2234,33.6948,-97.5228,Easy Street Animal Shelter,(940) 613-6865,TX,76265
4001 Sunset Dr. Ste 1072,,San Angelo,US,adopt@conchovalleypaws.org,TX180,31.4744,-100.3794,Concho Valley PAWS,325-653-8056,TX,76905
203 W. Sunset Rd.,"San Antonio,Tx 78209",San Antonio,US,4dogsakesrescue@gmail.com,TX1298,29.4878,-98.4573,4DogSakes,210-629-0177,TX,78209
4710 State Hwy 151,,San Antonio,US,ACSAdoptions@sanantonio.gov,TX487,29.4079,-98.6351,Animal Care Services Division City of San Antonio,210-207-6666,TX,78227
,,San Antonio,US,adoption@tejasrescues.org,TX1006,29.5352,-98.4939,Tejas Rescued Pet Adoptions,(210) 416-3947,TX,78216
,,San Antonio,US,amber@tracysdogs.com,TX1640,29.5352,-98.4939,Tracysdogs,(830) 438-6066,TX,78216
P.O. Box 39341,,San Antonio,US,blueangelrescue@aol.com,TX1264,29.4964,-98.4038,Rescuers United for Furry Friends (R.U.F.F.)/ Blue Angel German Shepherd Dog Rescue,,TX,78218
,,San Antonio,US,carolyn.hinojosa@izabellascaninerescueandrehab.com,TX1968,29.3628,-98.4432,Izabella's Canine Rescue and Rehabilitation,,TX,78223
335 Old Blanco Rd,,San Antonio,US,chuddleston@wildlife-rescue.org,TX772,29.4581,-98.4941,Wildlife Rescue & Rehabilitation,(830) 336-2725 ext. 316,TX,78212
P.O. Box 692308,,San Antonio,US,crazykattlady67@gmail.com,TX841,29.576,-98.412,San Antonio Feral Cat Coalition,(210) 877-9067,TX,78247
,,San Antonio,US,diana.sandlin@gmail.com,TX1774,29.5168,-98.6081,Second Chance Cavy Rescue,(210) 900-7749,TX,78240
28730 IH-10 West- Exit 546,Fair Oaks Ranch,San Antonio,US,hotk9rescue@yahoo.com,TX585,29.7098,-98.4839,Heart of Texas SPCA,(830) 981-2300,TX,78260
,,San Antonio,US,HydeParkRescue@gmail.com,TX461,29.4878,-98.4573,Al's Hyde Park Rescue,(210) 218-9289,TX,78209
,,San Antonio,US,icatyger@aol.com,TX1998,29.5706,-98.5375,Protecting Animals Within San Antonio (P.A.W.S foster based rescue),,TX,78231
11300 Nacogdoches Road,,San Antonio,US,info@adltexas.org,TX46,29.5425,-98.4199,Animal Defense League of Texas,210-655-1481,TX,78217
,,San Antonio,US,Info@missyshavencr.org,TX1863,29.3628,-98.4432,Missys Haven Canine Rescue,(210) 802-5031,TX,78223
,,San Antonio,US,krr.rescueme@gmail.com,TX1533,29.413,-98.6931,Katie's Roadside Rescue,210-831-4998,TX,78245
6324 CR 4514,,San Antonio,US,mjmmarsh@msn.com,TX1002,29.1455,-98.9069,San Antonio Doberman Advocacy and Rescue,830-985-3853,TX,78016
Box 6286,,San Antonio,US,mysterydogrescue1@yahoo.com,TX1718,29.4878,-98.4573,Mystery Dog Rescue,210-551-8262,TX,78209
,,San Antonio,US,ordinarymiracles@att.net,TX1592,29.4127,-98.4159,Ordinary Miracles Canine Rescue,,TX,78220
865 S Loop 1604 E,,San Antonio,US,pawsranchrescue@yahoo.com,TX1454,29.1692,-98.4719,Paws Ranch Rescue and Animal Sanctuary,210-842-7558,TX,78264
,,San Antonio,US,PoquitaPawsRescue@yahoo.com,TX1603,29.4878,-98.4573,Poquita Paws Rescue,,TX,78209
"4710 Highway 151, Building One",,San Antonio,US,rescueme@sanantoniopetsalive.org,TX1633,29.4079,-98.6351,San Antonio Pets Alive!,please use e-mail only  ,TX,78227
,,San Antonio,US,scurvydogrescuesatx@gmail.com,TX1946,29.654,-98.6597,START,,TX,78255
,,San Antonio,US,sharalmack@gmail.com,TX979,29.5832,-98.4691,Pause for Paws,210-378-5373,TX,78232
PO Box 90325,,San Antonio,US,snipsaadoptions@gmail.com,TX988,29.4878,-98.4573,SNIPSA Inc.,(210) 237-9400,TX,78209
,,San Antonio,US,telma.sarocks@gmail.com,TX1783,29.5061,-98.6635,San Antonio R.O.C.K.S.,,TX,78250
,,San Antonio,US,tumwaterdogs@gmail.com,TX2226,29.3444,-98.5049,Pet Central Dog Rescue,,TX,78221
,,San Antonio,US,VUNVEQRESCUE@AOL.COM,TX2064,29.3834,-98.3946,VUN-VEQ Rescue,2108631858,TX,78222
,,San Antonio,US,waywardwhiskerscatrescue@hotmail.com,TX1766,29.5168,-98.6081,Wayward Whiskers Cat Rescue,,TX,78240
,,San Augustine,US,denninganimalrescue@gmail.com,TX2281,31.5262,-94.1111,Denning Animal Rescue,(936) 288-0844,TX,75972
3000 Avenue R,,San Leon,US,Info@BayAreaPetAdoptions.org,TX128,29.5338,-95.0311,Bay Area Pet Adoptions/SPCA,281-339-2086,TX,77565
630 E. Hopkins (mailing),750 River Road (physical),San Marcos,US,animal_services_info@sanmarcostx.gov,TX57,29.8816,-97.9452,San Marcos Regional Animal Shelter,(512) 805-2657,TX,78666
,,San Marcos,US,PAL@PreventALitter.com,TX1606,29.8831,-97.9411,Pet Prevent A Litter (PALS) of Central Texas,512 754-PALS,TX,78667
,,San Marcos,US,tailswithintexas@gmail.com,TX2288,29.8816,-97.9452,Tails within Texas Rescue,(512) 618-3160,TX,78666
P. O. Box 435,,Sanger,US,pawsandclawsvet@embarqmail.com,TX1770,33.3601,-97.1786,Paws and Claws Veterinary Clinic,940-458-2529,TX,76266
P.O.  Box 834,,Santa Fe,US,aurorasrescue@hotmail.com,TX960,29.3853,-95.1246,AURORAS Animal Adoptions,,TX,77517
PO Box 790,,Santa Fe,US,info@saverescue.org,TX1768,29.3853,-95.1246,S.A.V.E. Rescue Coalition,(844) 336-7283,TX,77517
,,Santa Fe,US,leeselman@comcast.net,TX1553,29.3853,-95.1246,Southern Comforts Animal Rescue,(281) 596-4438,TX,77517
PO Box 605,,Schertz,US,info@homesforpets.org,TX223,29.5692,-98.2731,Homes for Pets/Schertz Humane Society,210-619-1980,TX,78154
,,Scurry,US,Mlynnackerman@gmail.com,TX2010,32.4868,-96.3904,"Kaufman County Cats, Inc",214-502-6567,TX,75158
P O Box 367,,Seagoville,US,info@ohar.org,TX1340,32.6488,-96.5546,Oak Hill Animal Rescue Inc,972.287.9150,TX,75159
,,Seguin,US,adoptions@sarasanctuary.org,TX2286,29.5665,-97.9694,Society for Animal Rescue and Adoption (SARA) ,(830) 401-0280,TX,78155
,,Seguin,US,arftexas@att.net,TX1681,29.5665,-97.9694,ARF Animal Rescue Foundation,(830) 433-2458,TX,78155
2484 State Hwy. 46 N.,,Seguin,US,gchs@satx.rr.com,TX273,29.5686,-97.9644,Guadalupe County Humane Society,830-372-2055,TX,78156
129 Royal Crest Circle,,Seguin,US,huntersdogrescue@gmail.com,TX1982,29.5665,-97.9694,Hunters Dog Rescue,2108462195,TX,78155
,,Seguin,US,jolleyjames@sbcglobal.net,TX937,29.5665,-97.9694,Russell Rescue of Texas,,TX,78155
555 Fred Byrd Dr.,,Seguin,US,Lutz@seguintexas.gov,TX2217,29.5665,-97.9694,Seguin Animal Services,830-401-2335,TX,78155
,,Seguin,US,waggintailzadoptions@gmail.com,TX2001,29.5665,-97.9694,Waggin' Tailz Rescue and Adoptions,,TX,78155
10200 CR 2403,,Seven Points,US,info@hsccl.org,TX854,32.4301,-96.2136,Humane Society of Cedar Creek Lake,(903) 432-3422,TX,75143
,,Sheridan,US,puppalace2011@gmail.com,TX2054,29.4933,-96.6708,Hooves and Hounds Rescue and Rehabilitation Sanctuary,,TX,77475
3377 Spalding Road,,Sherman,US,martha@arfhouse.org,TX318,33.6464,-96.6305,Animal Refuge Foundation,903-564-7056,TX,75092
,,Sherman,US,Muttypawz@yahoo.com,TX2253,33.6435,-96.6116,Mutty Pawz,(903) 814-2276,TX,75090
1800 E. Ida Road,,Sherman,US,stevew@ci.sherman.tx.us,TX480,33.6435,-96.6116,Sherman Animal Shelter,903-892-7255,TX,75090
,,Shoreacres,US,ferretfrenzy@yahoo.com,TX578,29.6575,-95.0499,Tricks and Treats Rescue,,TX,77571
P. O. Box 253,,Simms,US,lkrice@yahoo.com,TX1436,33.3167,-94.5608,Abandoned 2 Home Cat Rescue,(903) 543-1178,TX,75574
,,Smithville,US,bsarescue@prodigy.net,TX839,30.02,-97.172,Blue Sky Animal Rescue,,TX,78957
P O Box 674,,Snyder,US,SecondChanceResQ@gmail.com,TX1984,32.7178,-100.9172,Second Chance Dog Rescue,(800) 647-7109,TX,79550
,,Somerset,US,newleashonlife@att.net,TX595,29.2208,-98.6698,New Leash on Life! American Eskimo Dog Rescue,(210) 410-7334,TX,78069
,,Somerville,US,Somervilleanimalrescue@yahoo.com,TX2268,30.3454,-96.5282,Somerville Rescue,(979) 203-8620,TX,77879
4908 Padre Blvd.,,South Padre Island,US,friendsofanimalrescue@gmail.com,TX2248,26.1187,-97.1693,Friends of Animal Rescue,(956) 772-1171,TX,78597
PO Box 11936,,Spring,US,adopt@corridorrescue.org,TX1448,30.0475,-95.5322,Corridor Rescue Inc.,,TX,77391
P.O. Box 910,,Spring,US,adoptions@smartpetz.com,TX758,30.0797,-95.4169,SMART Rescue,(281) 794-9934,TX,77383
,,Spring,US,clippedear@aol.com,TX1265,30.1269,-95.4216,Clipped Ear Cat Sanctuary,,TX,77386
P. O. Box 8583,,Spring,US,donna@schnauzerrescuetexas.me,TX1936,30.0542,-95.3804,Schnauzer Rescue of Texas,877-638-0378,TX,77373
,,Spring,US,hhpprescue@yahoo.com,TX2191,30.1269,-95.4216,Houston Homeless Pet Project,,TX,77386
P.O. Box 130448,,Spring,US,info@texasanimalsociety.com,TX2046,30.0619,-95.3838,Texas Animal Society,,TX,77393
,,Spring,US,info@yorkierescuehouston.org,TX2095,30.0225,-95.5307,Yorkie Rescue Houston,,TX,77379
,,Spring,US,labsetcrescue@gmail.com,TX1679,30.0225,-95.5307,Labs Etc. Rescue,,TX,77379
P. O. Box 9801,,Spring,US,mgrd@aol.com,TX1649,30.1369,-95.4691,Houston Cocker Spaniel Rescue,713-469-2414,TX,77380
,,Spring,US,pcpr@my-petz.com,TX1117,30.0225,-95.5307,Precious Critters Small Pet Rescue,,TX,77379
24950 Spring Ridge Drive,Bldg B,Spring,US,Reggie@texaslittercontrol.org,TX1736,30.1269,-95.4216,Texas Litter Control,832-930-0228,TX,77386
,,Spring,US,smithsaints@comcast.net,TX1977,30.0773,-95.5176,"Grace & Hope for Paws, A Pet Rescue, Inc.",,TX,77382
PO BOX 131582,,Spring,US,tinypaws26@aol.com,TX1388,30.0619,-95.3838,Tiny Paws and Chi Rescue,JOIN US ON FACEBOOK ,TX,77393
,,Spring,US,WestieHoustonPetfinder@gmail.com,TX661,30.0799,-95.4158,Westie and Scottie Rescue Houston,,TX,77387
,,Springtown,US,mercyforpaws@gmail.com,TX2056,32.9645,-97.6824,Mercy For Paws,8175659724,TX,76082
,,Stafford,US,losrhone@gmail.com,TX1281,29.6266,-95.5688,Annie's Angels Texas Rescue Group,(832) 483-0997,TX,77477
,,Stephenville,US,dfwcollierescue@gmail.com,TX808,32.2215,-98.2166,DFW Collie Rescue,(214) 668-5794,TX,76401
PO Box 16864,,Sugar Land,US,adoption@texassleddogrescue.org,TX1762,29.6188,-95.6162,Texas Sled Dog Rescue,,TX,77496
,,Sugar Land,US,animalrescuekingdom@gmail.com,TX971,29.6398,-95.651,Animal Rescue Kingdom (A.R.K),(832) 267-5777,TX,77498
"4771 Sweetwater Blvd., #111",,Sugar Land,US,freedomcollierescue@yahoo.com,TX1882,29.5811,-95.6126,Freedom Collie Rescue,936-442-1345,TX,77479
,,Sugar Land,US,info@hopeforhorses.com,TX528,29.5811,-95.6126,"Hope for Horses Equine Rescue, Inc.",,TX,77479
101 Gillingham,,Sugar Land,US,kketchum@sugarlandtx.gov,TX805,29.6194,-95.6347,Sugar Land Animal Services,281-275-A-DOG (2364),TX,77487
,,Sugar Land,US,saveourstraysvolunteer@gmail.com,TX1285,29.6321,-95.6192,Save Our Strays Sugarland,,TX,77478
,,Sugar Land,US,tgcbullterrierrescue@gmail.com,TX1217,29.6398,-95.651,Texas Gulf Coast Bull Terrier Rescue,,TX,77498
500 Venecia Dr,,Sullivan City,US,yaquianimalrescueadoptions@yahoo.com,TX2113,26.2769,-98.5608,Yaqui Animal Rescue,956-651-8636,TX,78595
PO BOX 531,,Sulphur Springs,US,adoptonenow@aol.com,TX2080,33.1383,-95.6008,Hearts of Life Animal Rescue,903-439-5019,TX,75483
,,Sulphur Springs ,US,,TX2284,33.1299,-95.5999,Sulphur Springs Animal Shelter,(903) 438-9369,TX,75482
371 Long Creek Rd,,Sunnyvale,US,sunnyvaleaco@townofsunnyvale.org,TX1080,32.7917,-96.5647,Sunnyvale Animal Control,214-862-4525,TX,75182
701 East 4th Street,,Taylor,US,txcrittercrusaders@gmail.com,TX601,30.5777,-97.4164,Taylor Animal Shelter,(512) 352-5483,TX,76574
,,Taylor,US,txcrittercrusaders@gmail.com,TX2229,30.5777,-97.4164,Texas Critter Crusaders,,TX,76574
P.O. Box 2351,,Temple,US,myhappytail@yahoo.com,TX947,31.0981,-97.3425,APAC - Association for a Pet Adoption Center,(254) 541-1461,TX,76505
2601 E US Highway 80,,Terrell,US,sharmon@cityofterrell.org,TX1715,32.7364,-96.2811,City of Terrell Animal Adoption Center,972-551-6641,TX,75160
,,Terrell,US,taa501c3@yahoo.com,TX1855,32.7293,-96.2886,Terrell Animal Alliance,972-345-3682,TX,75161
P.O. Box 6491,,Texarkana,US,BoxerRescueofTexarkana@gmail.com,TX1637,33.425,-94.0475,Boxer Rescue of Texarkana,,TX,75505
,,Texarkana,US,Cockers4me@hotmail.com,TX1560,33.4266,-94.0829,ARKLATEX Cocker Spaniel Rescue,,TX,75501
,,Texarkana,US,dawnrsmith99@hotmail.com,TX1171,33.4435,-94.125,Passion for Pooches Rescue,903-826-2535,TX,75501
5820 Richmond Rd,,Texarkana,US,fostercare@texarkanaanimalleague.org,TX1288,33.4617,-94.0673,Texarkana Animal League,(877) 525-4825,TX,75503
,,Texarkana,US,JEFFnTEXARKANA@aol.com,TX1194,33.4266,-94.0829,Jeff Tarpley Rescue,,TX,75501
,,Texarkana,US,txkhs2014@gmail.com,TX494,33.425,-94.0475,Texarkana Humane Society,903-824-8117,TX,75504
3412 Loop 197 North,,Texas City,US,arc@gchd.org,TX672,29.3951,-94.9202,Galveston County Animal Resource Center,409-948-2485,TX,77590
3751 Main Street,#600-204,The Colony,US,adoptions@kittysave.org,TX901,33.0527,-97,Kitty Save,(214) 728-2237,TX,75057
,,The Woodlands,US,adopt@operationpetsalive.org,TX1531,30.0619,-95.3838,Operation Pets Alive,,TX,77393
P.O. Box 130251,,The Woodlands,US,allbordercollierescue@gmail.com,TX1282,30.0773,-95.5176,All Border Collie Rescue,please  e-mail,TX,77382
,,The Woodlands,US,bostonrescue@aol.com,TX244,30.1369,-95.4691,"Boston Terrier Rescue of Greater Houston, Inc.",,TX,77380
PO Box 130175,,The Woodlands,US,lonestarlabadoptions@gmail.com,TX1405,30.0619,-95.3838,Lone Star Animal Welfare League Lab Rescue,,TX,77393
,,The Woodlands,US,rescue@thebryis.com,TX1912,30.0773,-95.5176,The Bryi's Meows and More Rescue,,TX,77382
P.O. Box 772,,Thorndale,US,info@poundpups.org,TX421,30.65,-97.2139,Charlynes Pound Puppies,(512) 832-4101,TX,76577
,,Tomball,US,goodlif3adoptions@gmail.com,TX2112,30.0969,-95.6158,Good Lif3 Bully Rescue,,TX,77377
,,Tomball,US,hartrescue.adoptions@gmail.com,TX2278,30.0969,-95.6158,Houston Animal Rescue Team - HART,,TX,77377
,,Tomball,US,info@HoustonBeagleRescue.org,TX166,30.0762,-95.6117,Houston Beagle Rescue,,TX,77375
,,Tomball,US,soujourn1@yahoo.com,TX2037,30.0969,-95.6158,Starfish Rescue,,TX,77377
P.O. Box 132899,,Tyler,US,adopt@spcaeasttx.com,TX1877,32.3511,-95.3008,SPCA of East Texas,903-596-7722,TX,75713
PO Box 6151,,Tyler,US,gayle@hsoet.org,TX242,32.3511,-95.3008,Pets Fur People,903-597-2471,TX,75711
,,Tyler,US,TMSGriffith@aol.com,TX556,32.3827,-95.43,"Tonya Griffith's Animal Rescue, Inc.",(903) 533-1282,TX,75704
134 Athenian Drive,,Universal City,US,animalshelter@uctx.gov,TX906,29.5537,-98.3039,Universal City Animal Care & Control,210-658-0700,TX,78148
P.O. Box 1650,,Uvalde,US,hsuadoption@yahoo.com,TX833,29.216,-99.7856,Humane Society of Uvalde,830-591-9229,TX,78801
,,Van Vleck,US,southtxbtrescue@gmail.com,TX2183,29.027,-95.8804,South Texas Boston Terrier Rescue,,TX,77482
,,Venus,US,baaprescue@gmail.com,TX2282,32.4644,-97.106,Bark Ark and Purr Rescue,(817) 980-9781,TX,76084
P.O. Box 1665,2801 Sullivan Street,Vernon,US,whs76384@gmail.com,TX31,34.1489,-99.2942,Wilbarger Humane Society,940-552-5373,TX,76384
8215 Houston Highway,,Victoria,US,adoptapetvictoria@gmail.com,TX48,28.8066,-96.9945,Adopt-A-Pet,(361) 575-7387,TX,77901
,,Victoria,US,pawsforrebelrescue@gmail.com,TX2119,28.8919,-97.1723,Rebel Rescue,,TX,77905
PO Box 446,,Vidor,US,swe181@sweetpups.org,TX1579,30.1314,-94.0153,Sweetpups,(409) 769-1684,TX,77670
,,Von Ormy,US,adoptions@godsdogsrescue.org,TX1888,29.2307,-98.6138,God's Dogs Rescue,(210) 617-8181,TX,78073
,,Von Ormy,US,kimtimacres@yahoo.com,TX1186,29.2307,-98.6138,KIM ACRES ANIMAL SANCTUARY,(210) 535-4447,TX,78073
2032 Circle Rd,,Waco,US,hsctapplications@gmail.com,TX447,31.5201,-97.1229,Humane Society of Central TX,254-754-1454,TX,76706
6321 Airport Road,,Waco,US,volunteer@fuzzyfriendsrescue.com,TX534,31.5492,-97.1464,Fuzzy Friends Rescue,(254) 754-9444,TX,76702
,,Waller,US,adopt@theamericanstreetcat.org,TX2120,30.0706,-95.9153,"The American Street Cat, Inc.",,TX,77484
,,Waller,US,Cityofwalleranimalshelter@gmail.com,TX2289,30.0706,-95.9153,City of Waller Animal Shelter ,(346) 254-7824,TX,77484
,,Wallis,US,2manydogstx@gmail.com,TX1582,29.6553,-96.1251,2 Many Dogs Rescue,,TX,77485
,,Watauga,US,thebunnyburrowrr@gmail.com,TX1838,32.8672,-97.2494,The Bunny Burrow Rabbit Rescue,,TX,76148
5203 Watauga Road,,Watauga,US,WataugaTXanimals@yahoo.com,TX934,32.8672,-97.2494,Watauga Animal Shelter,817-656-9614,TX,76148
,,Waxahachie,US,daphne@txtailsofhope.org,TX1239,32.3961,-96.8383,Tails of Hope Pet Rescue,(972) 937-1000,TX,75165
403 Hickory Lane,,Weatherford,US,animals@weatherfordtx.gov,TX54,32.7861,-97.8183,Weatherford Parker County Animal Shelter,(817) 598-4111,TX,76086
PO Box 781,,Weatherford,US,parkerpawsrescue@gmail.com,TX1642,32.7861,-97.8183,Parker Paws,817-694-5718,TX,76086
P.O. Box 32,,Weatherford,US,rescue@irescuehomelesspets.org,TX1898,32.7861,-97.8183,iRescue,,TX,76086
,,Weatherford,US,ro@cattailz.org,TX1502,32.6998,-97.757,Cattailz.org,,TX,76087
,,Weatherford,US,saideacres@yahoo.com,TX980,32.7719,-97.7834,Saide Acres,Please e-mail ,TX,76088
,,Weatherford,US,WeatherfordWhiskers@gmail.com,TX2266,32.7861,-97.8183,Weatherford Whiskers,(817) 694-4106,TX,76086
,,Webster,US,atrover@cityofwebster.com,TX1024,29.5433,-95.1413,City of Webster Animal Shelter,(281) 316-3709,TX,77598
PO Box 743,,Wharton,US,Adoptions@SmilingDogFarms.org,TX1226,29.317,-96.1007,Smiling Dog Farms,,TX,77488
P.O. Box 584,,Wharton,US,wcspot@hotmail.com,TX1386,29.317,-96.1007,Wharton County Stray Pet Outreach Team,979-253-3446,TX,77488
Tranquility Base Farm,1215 Cooke County Road 140,Whitesboro,US,redriverspca@gmail.com,TX109,33.661,-96.9031,Red River SPCA,940-668-6714,TX,76273
,,Whitewright,US,barn@lonestarmail.net,TX2244,33.5127,-96.3952,Bluebonnet Animal Rescue Network,(903) 231-3276,TX,75491
,,Whitewright,US,caninekarmarescue@gmail.com,TX1551,33.5127,-96.3952,Canine Karma Rescue,,TX,75491
133 Waterview Drive,,Whitney,US,purrfectcorp@hotmail.com,TX414,31.9604,-97.3108,Purrfect Corporation Animal Sanctuary,254-694-7055,TX,76692
1207 Hatton Road,,Wichita Falls,US,diann.bowman@wichitafallstx.gov,TX1914,33.8685,-98.4918,City of Wichita Falls Animal Services,(940) 761-8894,TX,76302
4360 Old Iowa Park Road,,Wichita Falls,US,frontdesk@humanesocietyofwichitacounty.org,TX87,33.9414,-98.5599,Humane Society of Wichita County,940-855-4941,TX,76305
PO Box 9823,,Wichita Falls,US,texaspitcrew@gmail.com,TX1955,33.8666,-98.5374,Texas Pit Crew,,TX,76308
PO Box 2603,,Wimberley,US,adoptions@wimberleywagrescue.org,TX1374,30.0309,-98.1373,Wimberley Adoption Group & Rescue,512-847-3200,TX,78676
,,Wylie,US,astasiasangelsar@gmail.com,TX1906,33.014,-96.5428,Astasias Angels Animal Rescue,469-766-6336,TX,75098
,,Wylie,US,info@dfwbulldogrescue.org,TX678,33.014,-96.5428,Lone Star Bulldog Club Rescue,,TX,75098
P.O. Box 2467,,Wylie,US,info@dfwpuppatrol.com,TX1407,33.014,-96.5428,DFW Pup Patrol Rescue,214-912-8191,TX,75098
,,Wylie,US,powderspalsrescue@gmail.com,TX2196,33.014,-96.5428,Powder's Pals Rescue,214-901-0906,TX,75098
,,Yantis,US,lakecountryladies@gmail.com,TX2162,32.8693,-95.5537,Lake Country Ladies to the Rescue,903-474-1278,TX,75497